{"features": [{"geometry": {"coordinates": [106.737661, -6.1860896], "type": "Point"}, "id": 1308663671, "properties": {"amenity": "townhall", "is_in:country": "Indonesia", "is_in:county": "Kembangan", "is_in:region": "Jakarta Barat", "is_in:state": "Dki Jakarta", "name": "Kantor Walikota Jakarta Barat"}, "type": "Feature"}, {"geometry": {"coordinates": [106.8711309, -6.2093554], "type": "Point"}, "id": 2021076372, "properties": {"amenity": "townhall", "name": "Kelurahan Pisangan Baru"}, "type": "Feature"}, {"geometry": {"coordinates": [106.8289784, -6.1814454], "type": "Point"}, "id": 2090882757, "properties": {"addr:city": "Gambir, Central Jakarta", "addr:housenumber": "No. 8-9", "addr:postcode": "10110", "addr:street": "Jl. Medan Merdeka Selatan", "admin_level": "5", "amenity": "townhall", "building": "yes", "name": "Balaikota DKI Jakarta", "office": "government"}, "type": "Feature"}, {"geometry": {"coordinates": [106.772197, -6.1107002], "type": "Point"}, "id": 2479742645, "properties": {"addr:full": "MUARA ANGKE BLOK AMBALAT", "admin_level": "8", "amenity": "townhall", "building": "yes", "building:condition": "good", "building:levels": "1", "building:use": "potensi dapur umum", "name": "KANTOR RW 021"}, "type": "Feature"}, {"geometry": {"coordinates": [106.7956952, -6.1045182], "type": "Point"}, "id": 2479749120, "properties": {"addr:full": "pantai mutiara", "admin_level": "8", "amenity": "townhall", "building": "yes", "building:condition": "baik", "building:levels": "1", "building:use": "Pengungsian/tempat evakuasi", "name": "kantor sekretariat RW.016"}, "type": "Feature"}, {"geometry": {"coordinates": [106.7702282, -6.1091287], "type": "Point"}, "id": 2479751947, "properties": {"addr:full": "Jl.Pengasinan", "admin_level": "8", "amenity": "townhall", "building": "yes", "building:condition": "good", "building:levels": "1", "building:use": "Posko Logistik", "name": "Kantor RW.01"}, "type": "Feature"}, {"geometry": {"coordinates": [106.7714765, -6.1083891], "type": "Point"}, "id": 2479751948, "properties": {"addr:full": "Jl.Rumah Susun Cinta kasih II Muara Angke", "admin_level": "8", "amenity": "townhall", "building": "yes", "building:condition": "good", "building:levels": "1", "building:use": "Posko Logistik", "name": "Kantor RW.020"}, "type": "Feature"}, {"geometry": {"coordinates": [106.7740683, -6.1101936], "type": "Point"}, "id": 2479751964, "properties": {"addr:full": "Taman Bawal Putih", "admin_level": "8", "amenity": "townhall", "building": "yes", "building:condition": "good", "building:levels": "1", "building:use": "tempat evakuasi, posko logistik dan dapur umum", "name": "kantor RW.011"}, "type": "Feature"}, {"geometry": {"coordinates": [106.7949037, -6.1240181], "type": "Point"}, "id": 2479752640, "properties": {"admin_level": "8", "amenity": "townhall", "building:condition": "good", "name": "kantor RW 09"}, "type": "Feature"}, {"geometry": {"coordinates": [106.7762188, -6.1046135], "type": "Point"}, "id": 2479752934, "properties": {"addr:full": "Jl. Dermaga Lama Muara Angke", "admin_level": "5", "amenity": "townhall", "building:condition": "good", "building:use": "potensi tempat evakuasi", "name": "Kantor Dishub Pel. Muara Angke"}, "type": "Feature"}, {"geometry": {"coordinates": [106.7748801, -6.1061176], "type": "Point"}, "id": 2479752938, "properties": {"access:roof": "yes", "addr:full": "Muara Angke", "admin_level": "7", "amenity": "townhall", "building": "yes", "building:condition": "good", "building:levels": "4-7", "building:use": "potensi tempat evakuasi", "name": "UPT PKPP & PPI"}, "type": "Feature"}, {"geometry": {"coordinates": [106.7917122, -6.1130413], "type": "Point"}, "id": 2479753532, "properties": {"addr:full": "Jln pluit", "admin_level": "8", "amenity": "townhall", "building": "yes", "building:condition": "good", "building:levels": "1", "building:use": "Tempat Evakuasi", "name": "Kantor Rw 04"}, "type": "Feature"}, {"geometry": {"coordinates": [106.7756578, -6.1219775], "type": "Point"}, "id": 2479756269, "properties": {"addr:full": "Jl Pluit Karang Permai NO1", "admin_level": "7", "amenity": "townhall", "building": "yes", "building:condition": "good", "building:levels": "3", "building:use": "tempat evakuasi, posko logistik dan dapur umum", "name": "Kelurahan Pluit"}, "type": "Feature"}, {"geometry": {"coordinates": [106.7793674, -6.1109604], "type": "Point"}, "id": 2479756273, "properties": {"admin_level": "8", "amenity": "townhall", "building:condition": "good", "building:levels": "1", "name": "Pos Rw"}, "type": "Feature"}, {"geometry": {"coordinates": [106.788714, -6.1204209], "type": "Point"}, "id": 2479762062, "properties": {"addr:full": "tmn pluit kencana utara", "admin_level": "8", "amenity": "townhall", "building:condition": "good", "building:levels": "1", "name": "kantor rw o6 pluit"}, "type": "Feature"}, {"geometry": {"coordinates": [106.7860296, -6.1201691], "type": "Point"}, "id": 2479762063, "properties": {"addr:full": "jalan pluit sakiti 5 no.17a", "admin_level": "8", "amenity": "townhall", "building:condition": "good", "building:levels": "1", "name": "kantor rw. 07 pluit"}, "type": "Feature"}, {"geometry": {"coordinates": [106.7733283, -6.1123172], "type": "Point"}, "id": 2479762409, "properties": {"addr:full": "jl.pluit karang molek", "admin_level": "RW O2", "amenity": "townhall", "building": "yes", "building:condition": "good", "building:levels": "1", "name": "KANTOR RW"}, "type": "Feature"}, {"geometry": {"coordinates": [106.7734537, -6.1137369], "type": "Point"}, "id": 2479762410, "properties": {"addr:full": "JL.PLUIT karang asri blok 10", "admin_level": "RW O13", "amenity": "townhall", "building": "yes", "building:condition": "good", "building:levels": "1", "building:use": "Posko Logistik", "name": "KANTOR RW 013"}, "type": "Feature"}, {"geometry": {"coordinates": [106.7764501, -6.1148314], "type": "Point"}, "id": 2479762411, "properties": {"access:roof": "no", "addr:full": "jl.muara karang", "admin_level": "RW O18", "amenity": "townhall", "building": "yes", "building:condition": "baik", "building:levels": "1", "building:use": "Tempat Evakuasi/Dapur umum/Posko kesehatan dll.", "name": "KANTOR RW"}, "type": "Feature"}, {"geometry": {"coordinates": [106.7856117, -6.1155656], "type": "Point"}, "id": 2479781171, "properties": {"addr:full": "Pluit Permai", "admin_level": "7", "amenity": "townhall", "building": "yes", "building:condition": "good", "building:levels": "2", "building:use": "Tempat Evakuasi", "name": "Balai Pengujian Pengolahan Hasil Perikanan"}, "type": "Feature"}, {"geometry": {"coordinates": [106.8019699, -6.1104461], "type": "Point"}, "id": 2490615825, "properties": {"amenity": "townhall", "building:condition": "good", "building:levels": "2", "name": "Kantor Kementrian dan Perikanan"}, "type": "Feature"}, {"geometry": {"coordinates": [106.8039228, -6.1221996], "type": "Point"}, "id": 2490616679, "properties": {"admin_level": "8", "amenity": "townhall", "building": "yes", "building:condition": "good", "building:levels": "2", "building:use": "Tempat Evakuasi", "name": "Kantor RW.017"}, "type": "Feature"}, {"geometry": {"coordinates": [106.7964163, -6.1286241], "type": "Point"}, "id": 2490616702, "properties": {"admin_level": "8", "amenity": "townhall", "building": "yes", "building:condition": "good", "building:levels": "2", "building:use": "Dapur Umum, Posko Kesehatan, Posko Logistik", "name": "Kantor RW 08"}, "type": "Feature"}, {"geometry": {"coordinates": [106.8030026, -6.110963], "type": "Point"}, "id": 2490616733, "properties": {"amenity": "townhall", "building:levels": "2", "name": "Kantor Kementrian Kelautan dan Perikanan"}, "type": "Feature"}, {"geometry": {"coordinates": [106.8038204, -6.1287781], "type": "Point"}, "id": 2490617750, "properties": {"addr:full": "Jalan Bakti", "admin_level": "8", "amenity": "townhall", "building": "yes", "building:condition": "good", "building:levels": "2", "building:use": "Tempat Evakuasi", "name": "Kantor RW 07"}, "type": "Feature"}, {"geometry": {"coordinates": [106.8027041, -6.1296717], "type": "Point"}, "id": 2490617751, "properties": {"addr:full": "Jalan Tanah Pasir", "admin_level": "8", "amenity": "townhall", "building": "yes", "building:condition": "poor", "building:levels": "2", "building:use": "Tempat Evakuasi", "name": "Kantor Rw 09"}, "type": "Feature"}, {"geometry": {"coordinates": [106.7997146, -6.1316245], "type": "Point"}, "id": 2490620013, "properties": {"addr:full": "Jalan Rawa Bebek 1", "admin_level": "8", "amenity": "townhall", "building": "yes", "building:condition": "good", "building:levels": "2", "building:use": "Tempat Evakuasi, Dapur Umum", "name": "Kantor Rw. 11"}, "type": "Feature"}, {"geometry": {"coordinates": [106.7717811, -6.1079788], "type": "Point"}, "id": 2500253635, "properties": {"amenity": "townhall", "building": "residential", "building:condition": "good", "building:levels": "1", "building:use": "tempat evakuasi, posko logistik dan dapur umum", "name": "Aula Perumahan Budha Tzu Chi"}, "type": "Feature"}, {"geometry": {"coordinates": [106.7961052, -6.1311983], "type": "Point"}, "id": 2511084653, "properties": {"admin_level": "8", "amenity": "townhall", "building:levels": "1", "name": "Kantor RW 06"}, "type": "Feature"}, {"geometry": {"coordinates": [106.8018816, -6.131331], "type": "Point"}, "id": 2511084655, "properties": {"admin_level": "8", "amenity": "townhall", "building:condition": "good", "building:levels": "1", "name": "Kantor RW 10"}, "type": "Feature"}, {"geometry": {"coordinates": [106.7978003, -6.1317947], "type": "Point"}, "id": 2511088310, "properties": {"admin_level": "8", "amenity": "townhall", "building:condition": "good", "building:levels": "2", "name": "Kantor RW 12"}, "type": "Feature"}, {"geometry": {"coordinates": [106.7714306, -6.1077196], "type": "Point"}, "id": 2540909792, "properties": {"addr:full": "rusub buda sutji", "admin_level": "8", "amenity": "townhall", "building": "yes", "building:condition": "good", "building:levels": "1", "building:use": "Posko Kesehatan", "name": "kantor rw 020"}, "type": "Feature"}, {"geometry": {"coordinates": [106.9636886, -6.0998406], "type": "Point"}, "id": 3813490553, "properties": {"admin_level": "8", "amenity": "townhall"}, "type": "Feature"}, {"geometry": {"coordinates": [106.9585267, -6.0968928], "type": "Point"}, "id": 3816551185, "properties": {"amenity": "townhall"}, "type": "Feature"}, {"geometry": {"coordinates": [[106.8711018, -6.1391239], [106.8711492, -6.1393203], [106.8713744, -6.1392732], [106.8713428, -6.1390768], [106.8711018, -6.1391239]], "type": "LineString"}, "id": 154830068, "properties": {"amenity": "townhall", "name": "KANTOR LURAH SUNTER AGUNG"}, "type": "Feature"}, {"geometry": {"coordinates": [[106.9005589, -6.3389724], [106.9007058, -6.3391536], [106.9007022, -6.3391923], [106.9007624, -6.3392019], [106.9007642, -6.3391202], [106.9007297, -6.3390929], [106.9007359, -6.3390472], [106.9007925, -6.3390542], [106.9008093, -6.3389065], [106.9007854, -6.3389047], [106.9008005, -6.3387368], [106.9006235, -6.3387209], [106.9006129, -6.3388819], [106.9005662, -6.3388775], [106.9005589, -6.3389724]], "type": "LineString"}, "id": 155948424, "properties": {"amenity": "townhall", "building": "yes", "name": "Perkantoran Swasta RW 03"}, "type": "Feature"}, {"geometry": {"coordinates": [[106.973471, -6.2668795], [106.9740198, -6.2669329], [106.9740948, -6.2663569], [106.9735131, -6.2662923], [106.973471, -6.2668795]], "type": "LineString"}, "id": 217614720, "properties": {"amenity": "townhall", "building": "yes", "name": "Kecamatan Bekasi Selatan"}, "type": "Feature"}, {"geometry": {"coordinates": [[106.8380797, -6.1724433], [106.8384639, -6.1722637], [106.8386999, -6.1727197], [106.8388217, -6.173013], [106.8384397, -6.1731704], [106.8380797, -6.1724433]], "type": "LineString"}, "id": 231290862, "properties": {"amenity": "townhall", "building": "yes", "name": "Dhanapala"}, "type": "Feature"}, {"geometry": {"coordinates": [[106.8536046, -6.2067597], [106.8537126, -6.2067579], [106.8537113, -6.2066686], [106.8536032, -6.2066703], [106.8536046, -6.2067597]], "type": "LineString"}, "id": 242190338, "properties": {"amenity": "townhall", "building:condition": "good", "building:levels": "1", "building:structure": "reinforced_masonry", "building:walls": "brick", "name": "Kantor RW 03 Kebon Manggis", "office": "yes"}, "type": "Feature"}, {"geometry": {"coordinates": [[106.7778176, -6.1233497], [106.7779737, -6.1233923], [106.7779491, -6.1234815], [106.777793, -6.1234389], [106.7778176, -6.1233497]], "type": "LineString"}, "id": 246963403, "properties": {"access:roof": "yes", "addr:full": "Jalan Pluit Karang Permai", "admin_level": "8", "amenity": "townhall", "building": "yes", "building:condition": "good", "building:levels": "1", "evacuation_center": "no", "flood_prone": "no", "name": "Kantor RW 15", "office": "government"}, "type": "Feature"}, {"geometry": {"coordinates": [[106.778776, -6.1176107], [106.7789946, -6.117657], [106.7789689, -6.1177772], [106.7787503, -6.117731], [106.778776, -6.1176107]], "type": "LineString"}, "id": 246963876, "properties": {"addr:full": "Jalan Pluit Karang Sari 13", "admin_level": "8", "amenity": "townhall", "building": "yes", "building:condition": "good", "building:levels": "1", "evacuation_center": "no", "flood_prone": "no", "name": "Kantor RW 08", "office": "government"}, "type": "Feature"}, {"geometry": {"coordinates": [[106.7750668, -6.1216379], [106.7751972, -6.1217416], [106.7751459, -6.1218053], [106.7750155, -6.1217016], [106.7750668, -6.1216379]], "type": "LineString"}, "id": 246972845, "properties": {"addr:full": "Jalan Pluit Karang Permai", "admin_level": "7", "amenity": "townhall", "building": "yes", "building:condition": "good", "building:levels": "1", "evacuation_center": "no", "flood_prone": "no", "name": "Kantor Sekretariat Karang Taruna Pluit", "office": "yes"}, "type": "Feature"}, {"geometry": {"coordinates": [[106.995157, -6.2349384], [106.9951194, -6.2353223], [106.9954896, -6.235365], [106.9955325, -6.2349757], [106.995334, -6.2349544], [106.995157, -6.2349384]], "type": "LineString"}, "id": 293643740, "properties": {"addr:city": "Bekasi", "addr:street": "Jalan Ir. H. Juanda", "amenity": "townhall", "building": "yes", "building:levels": "-7", "name": "Balaikota Bekasi"}, "type": "Feature"}, {"geometry": {"coordinates": [[106.7169744, -6.263077], [106.7170468, -6.2630846], [106.7170237, -6.2632347], [106.7169944, -6.2632301], [106.7169777, -6.2633199], [106.7168936, -6.2633041], [106.7169095, -6.2632161], [106.7168527, -6.2632071], [106.7168634, -6.2631398], [106.716962, -6.2631535], [106.7169744, -6.263077]], "type": "LineString"}, "id": 362085905, "properties": {"addr:city": "Tangerang Selatan", "addr:street": "Jalan Pondok Aren Raya", "admin_level": "7", "amenity": "townhall", "building": "civic", "name": "Kantor Kelurahan Pondok Aren", "townhall:type": "village"}, "type": "Feature"}, {"geometry": {"coordinates": [[106.7083644, -6.2729175], [106.7084767, -6.2729008], [106.7085121, -6.2730837], [106.7083652, -6.2731082], [106.7083565, -6.2730443], [106.7083838, -6.2730389], [106.7083784, -6.2730102], [106.7083565, -6.2730093], [106.7083538, -6.2729691], [106.7083714, -6.2729665], [106.7083644, -6.2729175]], "type": "LineString"}, "id": 362092698, "properties": {"addr:city": "Tangerang Selatan", "addr:street": "Jalan Jombang Raya", "amenity": "townhall", "building": "civic", "name": "Kantor Kelurahan Pondok Pucung", "townhall:type": "village"}, "type": "Feature"}, {"geometry": {"coordinates": [[106.7316123, -6.1358605], [106.7318041, -6.1358658], [106.7318082, -6.1357114], [106.7317464, -6.1357098], [106.7317464, -6.1356858], [106.7316883, -6.1357001], [106.7316781, -6.1357029], [106.7316244, -6.1357138], [106.7316123, -6.1358605]], "type": "LineString"}, "id": 362355921, "properties": {"amenity": "townhall", "building": "yes"}, "type": "Feature"}, {"geometry": {"coordinates": [[106.9585085, -6.0968904], [106.9585153, -6.0969077], [106.9585448, -6.0968963], [106.958538, -6.096879], [106.9585085, -6.0968904]], "type": "LineString"}, "id": 376783081, "properties": {"addr:full": "Jalan Marunda Pulo RT 01", "admin_level": "8", "amenity": "townhall", "building": "yes", "building:condition": "good", "building:levels": "1", "building:roof": "asbestos", "building:walls": "brick", "name": "Kantor Sekretaris Simpan Pinjam Danamon", "water_source:id": "PDAM"}, "type": "Feature"}, {"geometry": {"coordinates": [[106.9636514, -6.0997854], [106.963724, -6.0997639], [106.9637549, -6.0998666], [106.9636822, -6.0998882], [106.963663, -6.0998242], [106.9636514, -6.0997854]], "type": "LineString"}, "id": 377941793, "properties": {"addr:full": "Jalan Marunda Empang", "admin_level": "8", "amenity": "townhall", "building": "yes", "building:condition": "good", "building:levels": "1", "building:roof": "asbestos", "building:walls": "brick", "flood_prone": "yes", "name": "Kantor RW", "water_source:id": "PDAM"}, "type": "Feature"}, {"geometry": {"coordinates": [[106.85787, -6.2092054], [106.8578694, -6.2093176], [106.8580229, -6.2093185], [106.8580235, -6.209207], [106.8580549, -6.2092071], [106.8580576, -6.2087168], [106.8580599, -6.2083034], [106.8580619, -6.2079472], [106.8578179, -6.2079458], [106.8578162, -6.2082643], [106.8578553, -6.2082645], [106.8578535, -6.2085907], [106.8578515, -6.2089334], [106.85785, -6.2092053], [106.85787, -6.2092054]], "type": "LineString"}, "id": 451349915, "properties": {"access:roof": "no", "addr:full": "Jalan Matraman Raya", "amenity": "townhall", "building": "townhall", "building:levels": "1", "building:roof": "tile", "building:structure": "confined_masonry", "building:walls": "brick", "capacity": "1000", "name": "Graha Zeni AD Matraman"}, "type": "Feature"}], "type": "FeatureCollection"}