{"features": [{"geometry": {"coordinates": [106.8548495, -6.257531], "type": "Point"}, "id": 316549106, "properties": {"amenity": "university", "created_by": "Potlatch 0.10f", "name": "IPMI"}, "type": "Feature"}, {"geometry": {"coordinates": [106.8410773, -6.1885201], "type": "Point"}, "id": 318562281, "properties": {"addr:city": "Central Jakarta", "addr:housenumber": "1", "addr:postcode": "10330", "addr:street": "Jalan Sekolah Seni", "amenity": "university", "name": "Jakarta Institute of Arts", "name:id": "Institut Kesenian Jakarta", "operator": "ikj.ac.id"}, "type": "Feature"}, {"geometry": {"coordinates": [106.8331843, -6.3379366], "type": "Point"}, "id": 318841057, "properties": {"amenity": "university", "created_by": "Potlatch 0.10f", "name": "Pancasila"}, "type": "Feature"}, {"geometry": {"coordinates": [106.8766522, -6.1796489], "type": "Point"}, "id": 324566342, "properties": {"addr:city": "Pulo Gadung, East Jakarta", "addr:housenumber": "KM 28", "addr:postcode": "13210", "addr:street": "Jalan Raya Bogor", "amenity": "university", "name": "Universitas Jayabaya"}, "type": "Feature"}, {"geometry": {"coordinates": [106.7816055, -6.2018774], "type": "Point"}, "id": 344429766, "properties": {"amenity": "university", "created_by": "Merkaartor 0.13", "name": "Bina Nusantara"}, "type": "Feature"}, {"geometry": {"coordinates": [106.8123221, -6.3538465], "type": "Point"}, "id": 359927437, "properties": {"amenity": "university", "created_by": "Merkaartor 0.13", "name": "Institut Sains dan Tehnologi Indonesia"}, "type": "Feature"}, {"geometry": {"coordinates": [106.896339, -6.1729432], "type": "Point"}, "id": 387400834, "properties": {"amenity": "university", "name": "JIBES"}, "type": "Feature"}, {"geometry": {"coordinates": [106.8617588, -6.1321053], "type": "Point"}, "id": 396646062, "properties": {"addr:city": "North Jakarta", "addr:housenumber": "RT.11/RW.6, Sunter Agung, Tj. Priok,", "addr:postcode": "14350", "addr:street": "Jl. Sunter Permai Raya", "amenity": "university", "name": "Universitas 17 Agustus 1945 (Untag)"}, "type": "Feature"}, {"geometry": {"coordinates": [106.8726655, -6.2484426], "type": "Point"}, "id": 1138822443, "properties": {"amenity": "university", "name": "UKI (Universitas Kristen Indonesia)", "source": "Bing"}, "type": "Feature"}, {"geometry": {"coordinates": [106.7557268, -6.3064543], "type": "Point"}, "id": 1170854110, "properties": {"addr:city": "Ciputat, Tangerang Selatan", "addr:housenumber": "No. 95", "addr:postcode": "15412", "addr:street": "\u200eJl. Ir. H. Djuanda No. 95", "amenity": "university", "name": "UIN Jakarta Kampus 1"}, "type": "Feature"}, {"geometry": {"coordinates": [106.7592888, -6.310304], "type": "Point"}, "id": 1170854922, "properties": {"amenity": "university", "name": "UIN Jakarta Kampus 2"}, "type": "Feature"}, {"geometry": {"coordinates": [106.852996, -6.1997991], "type": "Point"}, "id": 1351091480, "properties": {"amenity": "university", "name": "Universitas Budi Luhur"}, "type": "Feature"}, {"geometry": {"coordinates": [106.7468148, -6.2329028], "type": "Point"}, "id": 1695660919, "properties": {"amenity": "university", "building": "university", "name": "Universitas Budi Luhur"}, "type": "Feature"}, {"geometry": {"coordinates": [106.8336162, -6.2215414], "type": "Point"}, "id": 1912469559, "properties": {"addr:city": "South Jakarta", "addr:postcode": "12920", "addr:street": "Jalan HR Rasuna Said", "amenity": "university", "name": "Universitas Bakrie"}, "type": "Feature"}, {"geometry": {"coordinates": [106.732262, -6.2685441], "type": "Point"}, "id": 2372055103, "properties": {"amenity": "university", "name": "Sekolah Tinggi Akuntansi Negera (STAN)"}, "type": "Feature"}, {"geometry": {"coordinates": [106.8158854, -6.2620076], "type": "Point"}, "id": 4145856261, "properties": {"addr:city": "Jakarta Selatan", "addr:housenumber": "No.35, 2", "addr:postcode": "12730", "addr:street": "Kemang Raya", "amenity": "university", "name": "LPPI (Lembaga Pendidikan Perbankan Indonesia)"}, "type": "Feature"}, {"geometry": {"coordinates": [106.8715323, -6.303804], "type": "Point"}, "id": 4146606481, "properties": {"addr:city": "RT.11/RW.2, Rambutan, Ps. Rebo,  East Jakarta", "addr:postcode": "13750", "addr:street": "Jl. Tanah Merdeka", "amenity": "university", "name": "Universitas Muhammadiyah"}, "type": "Feature"}, {"geometry": {"coordinates": [106.8729718, -6.250362], "type": "Point"}, "id": 4148371639, "properties": {"addr:city": "RT.9/RW.6, Cawang, Kramatjati, East Jakarta", "addr:housenumber": "No.2", "addr:postcode": "13630", "addr:street": "Jl. Mayjen Sutoyo", "amenity": "university", "name": "Universitas Kristen Indonesia (UKI)"}, "type": "Feature"}, {"geometry": {"coordinates": [106.7820887, -6.2021872], "type": "Point"}, "id": 4148479459, "properties": {"addr:city": "Kebon Jeruk ,West Jakarta", "addr:housenumber": "No.27", "addr:postcode": "11530", "addr:street": "Jl. Kebon Jeruk Raya", "amenity": "university", "name": "Binus University - Anggrek Campus"}, "type": "Feature"}, {"geometry": {"coordinates": [106.7970786, -6.2289644], "type": "Point"}, "id": 4148486750, "properties": {"addr:city": "Senayan ,South Jakarta", "addr:housenumber": "No. 6", "addr:postcode": "12270", "addr:street": "Jalan Hang Lekir I", "amenity": "university", "name": "Binus University - JWC Campus"}, "type": "Feature"}, {"geometry": {"coordinates": [106.7851943, -6.2006052], "type": "Point"}, "id": 4148494744, "properties": {"addr:city": "Palmerah , West Jakarta", "addr:housenumber": "No. 9", "addr:postcode": "11480", "addr:street": "Jl. K H. Syahdan", "amenity": "university", "name": "Binus University Syahdan Campus"}, "type": "Feature"}, {"geometry": {"coordinates": [106.8487987, -6.1937767], "type": "Point"}, "id": 4148735169, "properties": {"addr:city": "Central Jakarta", "addr:postcode": "10430", "addr:street": "Jalan Salemba Raya", "amenity": "university", "name": "Salemba UI"}, "type": "Feature"}, {"geometry": {"coordinates": [106.8351328, -6.3228547], "type": "Point"}, "id": 4150352997, "properties": {"addr:city": "Jagakarsa, South Jakarta", "addr:housenumber": "No.32", "addr:postcode": "12610", "addr:street": "Jl. Raya Lenteng Agung", "amenity": "university", "name": "Institut Ilmu Sosial dan Ilmu Politik"}, "type": "Feature"}, {"geometry": {"coordinates": [106.7935507, -6.1670311], "type": "Point"}, "id": 4150713240, "properties": {"addr:city": "RT.5/RW.9, Grogol, Grogol petamburan, West Jakarta", "addr:postcode": "11440", "addr:street": "Jl. Kyai Tapa No.20", "amenity": "university", "name": "Trisakti School of Management"}, "type": "Feature"}, {"geometry": {"coordinates": [106.7473261, -6.2358153], "type": "Point"}, "id": 4150759630, "properties": {"addr:city": "Petukangan Utara, Pesanggrahan, WEst Jakarta", "addr:postcode": "12260", "addr:street": "Jalan Ciledug Raya", "amenity": "university", "name": "Universitas Budi Luhur"}, "type": "Feature"}, {"geometry": {"coordinates": [106.8181586, -6.1307054], "type": "Point"}, "id": 4150763907, "properties": {"addr:city": "Pademangan, North Jakarta", "addr:postcode": "14430", "addr:street": "Jalan Lodan Raya No.2", "amenity": "university", "name": "Universitas Bunda Mulia Jakarta"}, "type": "Feature"}, {"geometry": {"coordinates": [106.7790783, -6.1859691], "type": "Point"}, "id": 4150766781, "properties": {"addr:city": "RT.1/RW.2, Duri Kepa, Kb. Jeruk, West Jakarta", "addr:housenumber": "No.9", "addr:postcode": "11510", "addr:street": "Jl. Arjuna Utara", "amenity": "university", "name": "Universitas Esa Unggul"}, "type": "Feature"}, {"geometry": {"coordinates": [106.8417093, -6.3545691], "type": "Point"}, "id": 4150774289, "properties": {"addr:city": "Cimanggis", "addr:postcode": "16451", "addr:street": "Jalan Akses UI", "amenity": "university", "name": "Universitas Gunadarma Kampus E"}, "type": "Feature"}, {"geometry": {"coordinates": [106.8765167, -6.1785471], "type": "Point"}, "id": 4150780692, "properties": {"addr:city": "Pulo Mas, East Jakarta", "addr:postcode": "13210", "addr:street": "Jl. Pulomas Selatan Kav 23", "amenity": "university", "name": "Universitas Jayabaya Kampus A"}, "type": "Feature"}, {"geometry": {"coordinates": [106.8151839, -6.2174333], "type": "Point"}, "id": 4150781250, "properties": {"addr:city": "RT.5/RW.4, Karet Semanggi, South Jakarta", "addr:housenumber": "No.51", "addr:postcode": "12930", "addr:street": "Jl. Jend. Sudirman", "amenity": "university", "name": "Universitas Katolik Atma Jaya"}, "type": "Feature"}, {"geometry": {"coordinates": [106.7677794, -6.2972918], "type": "Point"}, "id": 4150790050, "properties": {"addr:city": "Cireundeu, Ciputat, South Jakarta", "addr:postcode": "15419", "addr:street": "Jalan KH Ahmad Dahlan", "amenity": "university", "name": "Universitas Muhammadiyah Jakarta"}, "type": "Feature"}, {"geometry": {"coordinates": [106.7913592, -6.2479542], "type": "Point"}, "id": 4150795404, "properties": {"addr:city": "RT.3/RW.3, Kramat Pela, Kby. Baru, South Jakarta", "addr:postcode": "12130", "addr:street": "Jl. Limau II", "amenity": "university", "name": "Universitas Muhammadiyah Prof Dr Hamka"}, "type": "Feature"}, {"geometry": {"coordinates": [106.8393658, -6.2804809], "type": "Point"}, "id": 4150799229, "properties": {"addr:city": "RT.14/RW.3, Ps. Minggu, South Jakarta", "addr:postcode": "12520", "addr:street": "Jl. Sawo Manila", "amenity": "university", "name": "Universitas Nasional"}, "type": "Feature"}, {"geometry": {"coordinates": [106.8490096, -6.1962792], "type": "Point"}, "id": 4150802845, "properties": {"addr:city": "Menteng, Central Jakarta", "addr:postcode": "10340", "addr:street": "Jl. Pangeran Diponegoro No. 74", "amenity": "university", "name": "University of Persada Indonesia Y.A.I"}, "type": "Feature"}, {"geometry": {"coordinates": [106.8781673, -6.1950235], "type": "Point"}, "id": 4150806021, "properties": {"addr:city": "RT. 11 / RW. 14, Rawamangun, East Jakarta", "addr:postcode": "13220", "addr:street": "Jl. Rawamangun Muka", "amenity": "university", "name": "Universitas Negeri Jakarta"}, "type": "Feature"}, {"geometry": {"coordinates": [106.8328739, -6.3404877], "type": "Point"}, "id": 4150815590, "properties": {"addr:city": "RT. 1 / RW. 3, Srengseng Sawah, Jagakarsa, South Jakarta", "addr:postcode": "12630", "addr:street": "Jalan Raya Lenteng Agung", "amenity": "university", "name": "Universitas Pancasila"}, "type": "Feature"}, {"geometry": {"coordinates": [106.8330046, -6.2410747], "type": "Point"}, "id": 4150826065, "properties": {"addr:city": "Mampang Prapatan, South Jakarta", "addr:postcode": "12790", "addr:street": "Jl. Jend. Gatot Subroto Kav.97", "amenity": "university", "name": "Universitas Paramadina"}, "type": "Feature"}, {"geometry": {"coordinates": [106.796205, -6.2292139], "type": "Point"}, "id": 4150833549, "properties": {"addr:city": "RT.1/RW.3, Gelora, Center Jakarta", "addr:housenumber": "No.8", "addr:postcode": "10270", "addr:street": "Jl. Hang Lekir I", "amenity": "university", "name": "Universitas Prof Dr Moestopo"}, "type": "Feature"}, {"geometry": {"coordinates": [106.7903056, -6.16939], "type": "Point"}, "id": 4150834623, "properties": {"addr:city": "Grogol, West Jakarta", "addr:postcode": "11440", "addr:street": "Jl. Letjen S. Parman No. 1", "amenity": "university", "name": "Universitas Tarumanagara Kampus 1"}, "type": "Feature"}, {"geometry": {"coordinates": [106.8439888, -6.2362251], "type": "Point"}, "id": 4150836880, "properties": {"addr:city": "RT007/RW001, Tebet, South Jakarta", "addr:postcode": "12870", "addr:street": "Jl. Prof. Dr. Soepomo SH No. 84", "amenity": "university", "name": "Universitas Sahid Jakarta"}, "type": "Feature"}, {"geometry": {"coordinates": [106.7875067, -6.1693265], "type": "Point"}, "id": 4150842489, "properties": {"addr:city": "Tanjung Duren, West Jakarta", "addr:postcode": "11450", "addr:street": "Jl. Tanjung Duren Raya No.1", "amenity": "university", "name": "Universitas Tarumanagara Kampus II"}, "type": "Feature"}, {"geometry": {"coordinates": [106.8487396, -6.2534732], "type": "Point"}, "id": 4150865633, "properties": {"addr:city": "Kalibata, South Jakarta", "addr:housenumber": "No. 1", "addr:postcode": "12760", "addr:street": "Jl. TMP. Kalibata", "amenity": "university", "name": "Universitas Trilogi"}, "type": "Feature"}, {"geometry": {"coordinates": [106.7911106, -6.1669284], "type": "Point"}, "id": 4150871355, "properties": {"addr:city": "Grogol, Petamburan, West Jakarta", "addr:housenumber": "No.1", "addr:postcode": "11440", "addr:street": "Jalan Kyai Tapa", "amenity": "university", "name": "Universitas Trisakti"}, "type": "Feature"}, {"geometry": {"coordinates": [106.8688404, -6.1701537], "type": "Point"}, "id": 4150911520, "properties": {"addr:city": "Cempaka Putih, Central Jakarta", "addr:postcode": "10510", "addr:street": "Jl. Letjen Suprapto", "amenity": "university", "name": "Universitas YARSI"}, "type": "Feature"}, {"geometry": {"coordinates": [106.7933446, -6.3157114], "type": "Point"}, "id": 4150933736, "properties": {"addr:city": "South Jakarta", "addr:postcode": "12450", "addr:street": "Jalan Pondok Labu", "amenity": "university", "name": "Universitas Pembangunan Nasional"}, "type": "Feature"}, {"geometry": {"coordinates": [106.8773059, -6.1789536], "type": "Point"}, "id": 4152444161, "properties": {"addr:city": "Pulo Gadung, East Jakarta", "addr:housenumber": "Kav. 22", "addr:postcode": "13210", "addr:street": "Jl. Pulo Mas Selatan", "amenity": "university", "name": "Kalbis Institute"}, "type": "Feature"}, {"geometry": {"coordinates": [106.8495886, -6.3030623], "type": "Point"}, "id": 4152478046, "properties": {"addr:city": "Pasar Rebo, East Jakarta", "addr:housenumber": "No.58 C", "addr:postcode": "13760", "addr:street": "Jl. T.B. Simatupang", "amenity": "university", "name": "Kampus Indraprasta PGRI"}, "type": "Feature"}, {"geometry": {"coordinates": [106.7885573, -6.1686067], "type": "Point"}, "id": 4152506841, "properties": {"addr:city": "West Jakarta", "addr:housenumber": "Nomor 1", "addr:postcode": "11450", "addr:street": "Jl. Kyai Tapa", "amenity": "university", "name": "Universitas Trisakti - Pintu 2"}, "type": "Feature"}, {"geometry": {"coordinates": [106.8622197, -6.2950064], "type": "Point"}, "id": 4152517713, "properties": {"addr:city": "RT.1 / RW.3, Gedong, Pasar Rebo, East Jakarta", "addr:postcode": "13760", "addr:street": "Jalan Raya Tengah", "amenity": "university", "name": "Universitas Indraprasta PGRI"}, "type": "Feature"}, {"geometry": {"coordinates": [106.8877187, -6.1513063], "type": "Point"}, "id": 4152682189, "properties": {"addr:city": "Sunter, North Jakarta", "addr:housenumber": "Kav No.87,RT.9/RW.11", "addr:postcode": "14350", "addr:street": "Jln Yos Sudarso", "amenity": "university", "name": "Kwik Kian Gie School of Business (d/h IBII)"}, "type": "Feature"}, {"geometry": {"coordinates": [106.7370159, -6.3444413], "type": "Point"}, "id": 4153019855, "properties": {"addr:city": "South Tangerang, Banten", "addr:housenumber": "Nomor 1", "addr:postcode": "15417", "addr:street": "Jalan Surya Kencana", "amenity": "university", "name": "unpam (Universitas Pamulang)"}, "type": "Feature"}, {"geometry": {"coordinates": [106.7874739, -6.1943359], "type": "Point"}, "id": 4153028414, "properties": {"addr:city": "West Jakarta", "addr:housenumber": "Nomor 45", "addr:postcode": "11480", "addr:street": "Jl. Kemanggisan Ilir III", "amenity": "university", "name": "Binus University - Kijang Campus"}, "type": "Feature"}, {"geometry": {"coordinates": [106.7912274, -6.2472922], "type": "Point"}, "id": 4235054338, "properties": {"addr:city": "Kebayoran Baru, South Jakarta", "addr:housenumber": "1", "addr:postcode": "12130", "addr:street": "Jl. Limau, Kramat Pela", "amenity": "university", "name": "Universitas Muhammadiyah Prof. Dr. Hamka (UHAMKA)"}, "type": "Feature"}, {"geometry": {"coordinates": [106.9586878, -6.1037157], "type": "Point"}, "id": 4240681926, "properties": {"addr:city": "north jakarta", "addr:postcode": "14120", "addr:street": "Jl. Marunda Makmur", "amenity": "university", "name": "Sekolah Tinggi Ilmu Pelayaran"}, "type": "Feature"}, {"geometry": {"coordinates": [106.7999947, -6.1661449], "type": "Point"}, "id": 4240684322, "properties": {"addr:city": "West Jakarta", "addr:postcode": "11450", "addr:street": "Jalan Kyai Tapa", "amenity": "university", "name": "STP SAHID"}, "type": "Feature"}, {"geometry": {"coordinates": [106.817183, -6.260191], "type": "Point"}, "id": 4240843510, "properties": {"addr:city": "South Jakarta", "addr:housenumber": "35", "addr:postcode": "12730", "addr:street": "Jl. Kemang Raya", "amenity": "university", "name": "Indonesia Banking School"}, "type": "Feature"}, {"geometry": {"coordinates": [106.8532463, -6.1929105], "type": "Point"}, "id": 4240905228, "properties": {"addr:city": "Paseban, Senen , Central Jakarta", "addr:housenumber": "No.45, RT.14/RW.3", "addr:postcode": "10440", "addr:street": "Jl. Salemba Tengah", "amenity": "university", "name": "Bina Sarana Informatika, Kampus B3"}, "type": "Feature"}, {"geometry": {"coordinates": [106.9247143, -6.230466], "type": "Point"}, "id": 4241291219, "properties": {"addr:city": "Pondok Kelapa, Duren Sawit, East Jakarta", "addr:postcode": "13430", "addr:street": "Jl. Radin Intan II (Terusan Casablanca)", "amenity": "university", "name": "Universitas Darma Persada"}, "type": "Feature"}, {"geometry": {"coordinates": [106.8425527, -6.1792127], "type": "Point"}, "id": 4242294059, "properties": {"addr:city": "Senen, Central Jakarta", "addr:postcode": "10450", "addr:street": "Jalan Kramat Raya", "amenity": "university", "name": "LP3I Kampus Kramat"}, "type": "Feature"}, {"geometry": {"coordinates": [106.8170057, -6.2047612], "type": "Point"}, "id": 4242595245, "properties": {"addr:city": "Central Jakarta", "addr:postcode": "10220", "addr:street": "Jalan KH Mas Mansyur", "amenity": "university", "name": "London School of Public Relation Side Entrance"}, "type": "Feature"}, {"geometry": {"coordinates": [106.8443737, -6.2144907], "type": "Point"}, "id": 4243787310, "properties": {"addr:city": "Tebet, South Jakarta", "addr:housenumber": "83", "addr:postcode": "12850", "addr:street": "Jalan Doktor Saharjo", "amenity": "university", "name": "Master of Management Faculty of Economics and Business Universitas Gadjah Mada (Main Entrance)"}, "type": "Feature"}, {"geometry": {"coordinates": [106.7690331, -6.2602977], "type": "Point"}, "id": 4243790233, "properties": {"addr:city": "South Jakarta", "addr:postcode": "12330", "addr:street": "Jalan IKPN Bintaro", "amenity": "university", "name": "STP Trisakti"}, "type": "Feature"}, {"geometry": {"coordinates": [106.865923, -6.2232733], "type": "Point"}, "id": 4243791473, "properties": {"addr:city": "East Jakarta", "addr:housenumber": "No.144", "addr:postcode": "13930", "addr:street": "Jalan Jatinegara Barat", "amenity": "university", "name": "Universitas Azzahra"}, "type": "Feature"}, {"geometry": {"coordinates": [106.7980192, -6.2539751], "type": "Point"}, "id": 4243794189, "properties": {"addr:city": "South Jakarta", "addr:postcode": "12160", "addr:street": "Jl. Darmawangsa 1 No.1", "amenity": "university", "name": "Universitas Bhayangkara Jaya"}, "type": "Feature"}, {"geometry": {"coordinates": [106.8435827, -6.1974295], "type": "Point"}, "id": 4243794198, "properties": {"addr:city": "Central Jakarta", "addr:postcode": "10430", "addr:street": "Jalan Pegangsaan Timur No.17", "amenity": "university", "name": "Universitas Bung Karno,Campus Pegangsaan"}, "type": "Feature"}, {"geometry": {"coordinates": [106.8980497, -6.2436665], "type": "Point"}, "id": 4243794981, "properties": {"addr:city": "East Jakarta", "addr:postcode": "13620", "addr:street": "Jl Raya Kali Malang 1", "amenity": "university", "name": "Universitas Borobudur"}, "type": "Feature"}, {"geometry": {"coordinates": [106.9106264, -6.2621459], "type": "Point"}, "id": 4243804622, "properties": {"addr:city": "West Java", "addr:housenumber": "No.12", "addr:postcode": "17411", "addr:street": "Jalan Jatiwaringin Raya", "amenity": "university", "name": "Universitas Islam As-Syafi'iyah"}, "type": "Feature"}, {"geometry": {"coordinates": [106.8600484, -6.2241922], "type": "Point"}, "id": 4243805139, "properties": {"addr:city": "South Jakarta", "addr:postcode": "12810", "addr:street": "Jl. Kp. Melayu Kecil III No.15", "amenity": "university", "name": "Universitas Islam Attahiriyah"}, "type": "Feature"}, {"geometry": {"coordinates": [106.738117, -6.1347822], "type": "Point"}, "id": 4243807020, "properties": {"addr:city": "West Jakarta", "addr:postcode": "11740", "addr:street": "Jl. Kw. Rumah Susun", "amenity": "university", "name": "Universitas Kejuangan 45 Jakarta"}, "type": "Feature"}, {"geometry": {"coordinates": [106.9288259, -6.2221809], "type": "Point"}, "id": 4243808156, "properties": {"addr:city": "East Jakarta", "addr:postcode": "13470", "addr:street": "Jalan Delima II", "amenity": "university", "name": "Universitas Muhammadiyah Prof. Dr. Hamka, Fakultas Farmasi dan Sains"}, "type": "Feature"}, {"geometry": {"coordinates": [106.8688271, -6.1970169], "type": "Point"}, "id": 4243808333, "properties": {"addr:city": "East Jakarta", "addr:housenumber": "RT.8/RW.10", "addr:postcode": "13130", "addr:street": "Jl. Balai Rakyat", "amenity": "university", "name": "Universitas Islam Jakarta"}, "type": "Feature"}, {"geometry": {"coordinates": [106.9083645, -6.2632305], "type": "Point"}, "id": 4243812178, "properties": {"addr:city": "East Jakarta", "addr:postcode": "17411", "addr:street": "Jl. Raya Jatiwaringin", "amenity": "university", "name": "Universitas Krisnadwipayana"}, "type": "Feature"}, {"geometry": {"coordinates": [106.7559277, -6.3084384], "type": "Point"}, "id": 4243812871, "properties": {"addr:city": "Tangerang City", "addr:postcode": "15412", "addr:street": "Ir H Juanda", "amenity": "university", "name": "UIN Syarif Hidayatullah Jakarta"}, "type": "Feature"}, {"geometry": {"coordinates": [106.7887534, -6.1727929], "type": "Point"}, "id": 4243812873, "properties": {"addr:city": "West Jakarta", "addr:postcode": "11450", "addr:street": "Jalan Letjen. S. Parman", "amenity": "university", "name": "Universitas Kristen Krida Wacana Tanjung Duren"}, "type": "Feature"}, {"geometry": {"coordinates": [106.7248243, -6.2911747], "type": "Point"}, "id": 4243813382, "properties": {"addr:city": "Banten", "addr:postcode": "15411", "addr:street": "Jalan Tegalrotan", "amenity": "university", "name": "Universitas Pembangunan Jaya"}, "type": "Feature"}, {"geometry": {"coordinates": [106.7804559, -6.1853016], "type": "Point"}, "id": 4243813557, "properties": {"addr:city": "West Jakarta", "addr:postcode": "11510", "addr:street": "Jalan Arjuna Utara", "amenity": "university", "name": "UKRIDA"}, "type": "Feature"}, {"geometry": {"coordinates": [106.900892, -6.3163478], "type": "Point"}, "id": 4243816790, "properties": {"addr:city": "East Jakarta", "addr:postcode": "East Jakarta", "addr:street": "Jl. Bambu Apus I No.3", "amenity": "university", "name": "Universitas Respati Indonesia"}, "type": "Feature"}, {"geometry": {"coordinates": [106.7305178, -6.143317], "type": "Point"}, "id": 4243821688, "properties": {"addr:city": "West Jakarta", "addr:housenumber": "No.2A, RT.6/RW.8", "addr:postcode": "11720", "addr:street": "Jl. Kamal Raya", "amenity": "university", "name": "Universitas Satyagama, Kampus Pusat"}, "type": "Feature"}, {"geometry": {"coordinates": [106.7607862, -6.2297087], "type": "Point"}, "id": 4243822839, "properties": {"addr:city": "South Jakarta", "addr:housenumber": "No.58", "addr:postcode": "12620", "addr:street": "Jalan Swadarma Raya", "amenity": "university", "name": "Tanri Abeng University"}, "type": "Feature"}, {"geometry": {"coordinates": [106.8643934, -6.2522981], "type": "Point"}, "id": 4243823577, "properties": {"addr:city": "East Jakarta", "addr:housenumber": "No.184", "addr:postcode": "13510", "addr:street": "Jl. Dewi Sartika", "amenity": "university", "name": "Universitas Surapati"}, "type": "Feature"}, {"geometry": {"coordinates": [106.8840788, -6.2585246], "type": "Point"}, "id": 4243823668, "properties": {"addr:city": "East Jakarta", "addr:postcode": "13610", "addr:street": "Jl. Angkasa 1 Blok N No.7K", "amenity": "university", "name": "Universitas Dirgantara Marsekal Suryadarma"}, "type": "Feature"}, {"geometry": {"coordinates": [106.8404044, -6.302622], "type": "Point"}, "id": 4243825101, "properties": {"addr:city": "South Jakarta", "addr:housenumber": "No. 152", "addr:postcode": "12610", "addr:street": "Jl. Letjen TB Simatupang", "amenity": "university", "name": "Universitas Tama Jagakarsa"}, "type": "Feature"}, {"geometry": {"coordinates": [106.8755741, -6.225327], "type": "Point"}, "id": 4243830241, "properties": {"addr:city": "East Jarta", "addr:postcode": "13410", "addr:street": "Jalan Cipinang Besar", "amenity": "university", "name": "Universitas Mpu Tantular"}, "type": "Feature"}, {"geometry": {"coordinates": [106.7974648, -6.1734126], "type": "Point"}, "id": 4243830289, "properties": {"addr:city": "West Jakarta", "addr:housenumber": "No.33-34", "addr:postcode": "11470", "addr:street": "Jalan Mandala Utara", "amenity": "university", "name": "Universitas Timbul Nusantara"}, "type": "Feature"}, {"geometry": {"coordinates": [106.8694048, -6.2248613], "type": "Point"}, "id": 4243835430, "properties": {"addr:city": "East Jakarta", "addr:housenumber": "No.19-20", "addr:postcode": "13410", "addr:street": "Jalan Jend. Basuki Rahmat", "amenity": "university", "name": "Universitas Wiraswasta Indonesia"}, "type": "Feature"}, {"geometry": {"coordinates": [106.9402239, -6.2214906], "type": "Point"}, "id": 4243835927, "properties": {"addr:city": "East Jakarta", "addr:postcode": "13450", "addr:street": "Jl. Raya Mawar Merah No. 23", "amenity": "university", "name": "Institut Teknologi Budi Utomo"}, "type": "Feature"}, {"geometry": {"coordinates": [106.8339333, -6.3227042], "type": "Point"}, "id": 4243836853, "properties": {"addr:city": "South Jakarta", "addr:housenumber": "No.32, RT.11/RW.5", "addr:postcode": "12610", "addr:street": "Jl. Lenteng Agung", "amenity": "university", "name": "Institut Ilmu Sosial dan Ilmu Politik"}, "type": "Feature"}, {"geometry": {"coordinates": [106.7596858, -6.1862], "type": "Point"}, "id": 4243838395, "properties": {"addr:city": "West Jakarta", "addr:postcode": "11520", "addr:street": "Jalan Raya Kedoya Al Kamal No.2", "amenity": "university", "name": "Institut Sains dan Teknologi Al-Kamal"}, "type": "Feature"}, {"geometry": {"coordinates": [106.8114198, -6.3551915], "type": "Point"}, "id": 4243839041, "properties": {"addr:city": "South Jakarta", "addr:postcode": "12630", "addr:street": "JL. Moch Kahfi II", "amenity": "university", "name": "Institut Sains dan Teknologi Nasional"}, "type": "Feature"}, {"geometry": {"coordinates": [106.7830197, -6.2414887], "type": "Point"}, "id": 4243840057, "properties": {"addr:city": "South Jakarta", "addr:postcode": "12240", "addr:street": "Jalan Sultan Iskandar Muda", "amenity": "university", "name": "Universitas Satya Negara Indonesia"}, "type": "Feature"}, {"geometry": {"coordinates": [106.8784888, -6.1791793], "type": "Point"}, "id": 4243842960, "properties": {"addr:city": "East Jakarta", "addr:housenumber": "No.88", "addr:postcode": "13250", "addr:street": "Jalan Pulo MAS Barat 3", "amenity": "university", "name": "Indonesia International Institute for Life-Sciences"}, "type": "Feature"}, {"geometry": {"coordinates": [106.7983913, -6.2715848], "type": "Point"}, "id": 4243844505, "properties": {"addr:city": "South Jakarta", "addr:housenumber": "No. 3-5", "addr:postcode": "12410", "addr:street": "JL. Asem Dua", "amenity": "university", "name": "ESMOD Jakarta"}, "type": "Feature"}, {"geometry": {"coordinates": [106.7971724, -6.1669075], "type": "Point"}, "id": 4243844507, "properties": {"addr:city": "West Jakarta", "addr:postcode": "11450", "addr:street": "Jalan Kyai Tapa", "amenity": "university", "name": "Universitas Trisakti Kampus B"}, "type": "Feature"}, {"geometry": {"coordinates": [106.7699404, -6.1893891], "type": "Point"}, "id": 4243844917, "properties": {"addr:city": "West Jakarta", "addr:housenumber": "no. 35", "addr:postcode": "11510", "addr:street": "Jl. Arjuna Utara", "amenity": "university", "name": "Inti College"}, "type": "Feature"}, {"geometry": {"coordinates": [106.8448198, -6.1852464], "type": "Point"}, "id": 4248041293, "properties": {"addr:city": "Central Jakarta", "addr:postcode": "10450", "addr:street": "Jalan Kramat Raya", "amenity": "university", "name": "STIE Ahmad Dahlan"}, "type": "Feature"}, {"geometry": {"coordinates": [106.7441643, -6.3251451], "type": "Point"}, "id": 4248083886, "properties": {"addr:city": "South Tangerang", "addr:postcode": "15411", "addr:street": "Otto Iskandardinata", "amenity": "university", "name": "STIE Paripurna"}, "type": "Feature"}, {"geometry": {"coordinates": [106.7563191, -6.3076675], "type": "Point"}, "id": 4248089158, "properties": {"addr:city": "Tangerang City", "addr:postcode": "15412", "addr:street": "Ir H Juanda", "amenity": "university", "name": "Institut Ilmu Al-Qur'an Jakarta"}, "type": "Feature"}, {"geometry": {"coordinates": [106.7548195, -6.3109409], "type": "Point"}, "id": 4248093447, "properties": {"addr:city": "South Tangerang", "addr:postcode": "15419", "addr:street": "Ir H Juanda", "amenity": "university", "name": "AkPar Nusantara"}, "type": "Feature"}, {"geometry": {"coordinates": [106.750952, -6.3111092], "type": "Point"}, "id": 4248104604, "properties": {"addr:city": "Ciputat Timur, Banten", "addr:postcode": "15411", "addr:street": "Ir H Juanda", "amenity": "university", "name": "AMIK BSI CIPUTAT"}, "type": "Feature"}, {"geometry": {"coordinates": [106.7572008, -6.3450023], "type": "Point"}, "id": 4248117167, "properties": {"addr:city": "South Tangerang", "addr:postcode": "15418", "addr:street": "Jalan Cabe Raya", "amenity": "university", "name": "AMIK Wahana Mandiri"}, "type": "Feature"}, {"geometry": {"coordinates": [106.7150193, -6.2632401], "type": "Point"}, "id": 4248120154, "properties": {"addr:city": "Tangerang City", "addr:postcode": "15224", "addr:street": "Jalan Pondok Aren Raya", "amenity": "university", "name": "Akademi Refraksi Optisi Gapopin"}, "type": "Feature"}, {"geometry": {"coordinates": [106.7936113, -6.1250271], "type": "Point"}, "id": 4255693777, "properties": {"addr:city": "North Jakarta", "addr:postcode": "14450", "addr:street": "Pluit Selatan Raya", "amenity": "university", "name": "Universitas Katolik Atma Jaya (Kedokteran)"}, "type": "Feature"}, {"geometry": {"coordinates": [106.8449935, -6.2010767], "type": "Point"}, "id": 4255704441, "properties": {"addr:city": "Central Jakarta", "addr:postcode": "10320", "addr:street": "Jalan Proklamasi", "amenity": "university", "name": "Sekolah Tinggi Teologi Jakarta"}, "type": "Feature"}, {"geometry": {"coordinates": [106.8405014, -6.2441513], "type": "Point"}, "id": 4255959068, "properties": {"addr:city": "South Jakarta", "addr:postcode": "12780", "addr:street": "Jln. Gatot Subroto Kav.72", "amenity": "university", "name": "Wisma Aldiron"}, "type": "Feature"}, {"geometry": {"coordinates": [106.7933642, -6.3106071], "type": "Point"}, "id": 4438546288, "properties": {"amenity": "university", "name": "Bina Sarana Informatik"}, "type": "Feature"}, {"geometry": {"coordinates": [106.7661147, -6.2961361], "type": "Point"}, "id": 4516565417, "properties": {"amenity": "university", "name": "stie ahmad dahlan jakarta"}, "type": "Feature"}, {"geometry": {"coordinates": [[106.8147179, -6.2188162], [106.8154188, -6.2197273], [106.8162526, -6.2190934], [106.8156719, -6.2183384], [106.8155011, -6.2184682], [106.8150515, -6.2178837], [106.814885, -6.2180102], [106.8153105, -6.2185634], [106.8151566, -6.2186804], [106.8150606, -6.2185557], [106.8147179, -6.2188162]], "type": "LineString"}, "id": 119180833, "properties": {"amenity": "university", "building": "yes", "name": "Universitas Atmajaya"}, "type": "Feature"}, {"geometry": {"coordinates": [[106.8489324, -6.1944577], [106.8489877, -6.1945776], [106.8488057, -6.1946605], [106.8490865, -6.1952699], [106.8492959, -6.1951745], [106.8493668, -6.1953284], [106.8487331, -6.195617], [106.8486687, -6.1954773], [106.8489627, -6.1953433], [106.848678, -6.1947254], [106.8484118, -6.1948467], [106.848354, -6.1947212], [106.8489324, -6.1944577]], "type": "LineString"}, "id": 119783228, "properties": {"amenity": "university", "building": "yes", "building:levels": "3", "building:roof": "tile", "building:structure": "reinforced_masonry", "building:use": "education", "building:walls": "brick", "name": "Fakultas Kedokteran Universitas Indonesia"}, "type": "Feature"}, {"geometry": {"coordinates": [[106.8488958, -6.196481], [106.8490999, -6.1962523], [106.8496684, -6.1967597], [106.8490511, -6.1974515], [106.8488948, -6.197312], [106.8491733, -6.1969999], [106.8490885, -6.1969242], [106.8492233, -6.1967733], [106.8488958, -6.196481]], "type": "LineString"}, "id": 119783546, "properties": {"amenity": "university", "building": "yes", "building:levels": "10+", "building:roof": "concrete", "building:structure": "reinforced_masonry", "building:use": "education", "building:walls": "brick", "name": "universitas YAI"}, "type": "Feature"}, {"geometry": {"coordinates": [[106.8687075, -6.1697682], [106.8704231, -6.1690038], [106.8708234, -6.1698377], [106.8690633, -6.1705831], [106.8687075, -6.1697682]], "type": "LineString"}, "id": 119788128, "properties": {"amenity": "university", "building": "yes", "name": "Universitas Yarsi"}, "type": "Feature"}, {"geometry": {"coordinates": [[106.8666791, -6.3048324], [106.8670536, -6.3050613], [106.8668856, -6.3053329], [106.8665111, -6.305104], [106.8666791, -6.3048324]], "type": "LineString"}, "id": 119914470, "properties": {"amenity": "university", "building": "yes", "building:levels": "3", "building:roof": "tile", "building:structure": "reinforced_masonry", "building:use": "education", "building:walls": "brick", "name": "UHAMKA"}, "type": "Feature"}, {"geometry": {"coordinates": [[106.8401024, -6.3026407], [106.8409197, -6.3028218], [106.8410871, -6.3021219], [106.8409148, -6.3020779], [106.840964, -6.3018919], [106.8402353, -6.301701], [106.8401024, -6.3026407]], "type": "LineString"}, "id": 120018536, "properties": {"amenity": "university", "name": "Universitas Tama Jagakarsa"}, "type": "Feature"}, {"geometry": {"coordinates": [[106.8974665, -6.2434705], [106.8984629, -6.244058], [106.8979797, -6.2448678], [106.8974497, -6.2445553], [106.8976368, -6.2442418], [106.8971704, -6.2439668], [106.8974665, -6.2434705]], "type": "LineString"}, "id": 120161323, "properties": {"access:roof": "yes", "addr:full": "Jl. Inspeksi Tarum Barat Rt 09/ Rw 04", "amenity": "university", "building": "yes", "building:levels": ">7", "building:roof": "concrete", "building:structure": "confined_masonry", "building:use": "education", "building:walls": "brick", "capacity:persons": "1000", "evacuation_center": "yes", "flood_prone": "no", "kitchen:facilities": "yes", "name": "Universitas Borobudur", "shelter_type": "building", "toilet:facilities": "yes", "toilets:number": "4", "water_source": "powered_pump"}, "type": "Feature"}, {"geometry": {"coordinates": [[106.8519068, -6.1971323], [106.852107, -6.1969865], [106.8521667, -6.1970648], [106.8519773, -6.197208], [106.8519068, -6.1971323]], "type": "LineString"}, "id": 120549685, "properties": {"amenity": "university", "building": "yes", "building:levels": "4", "building:roof": "tile", "building:structure": "reinforced_masonry", "building:use": "education", "building:walls": "brick", "name": "Universitas Gunadarma"}, "type": "Feature"}, {"geometry": {"coordinates": [[106.7891287, -6.291569], [106.7896662, -6.2915433], [106.7896662, -6.2917899], [106.7891235, -6.2917796], [106.7891287, -6.291569]], "type": "LineString"}, "id": 121370627, "properties": {"amenity": "university", "building": "yes", "building:levels": "4", "building:roof": "concrete", "building:structure": "confined_masonry", "building:use": "education", "building:walls": "brick", "name": "Prasetya Mulya Business School"}, "type": "Feature"}, {"geometry": {"coordinates": [[106.9237354, -6.2293556], [106.9237504, -6.2297538], [106.9238555, -6.2297498], [106.9238615, -6.2299076], [106.9241449, -6.229897], [106.9241365, -6.2296741], [106.9239469, -6.2296811], [106.9239417, -6.2295424], [106.9241138, -6.229536], [106.9241065, -6.2293418], [106.9237354, -6.2293556]], "type": "LineString"}, "id": 121543558, "properties": {"amenity": "university"}, "type": "Feature"}, {"geometry": {"coordinates": [[106.9241396, -6.230143], [106.9241473, -6.230399], [106.9246031, -6.2303856], [106.9245955, -6.2301295], [106.9241396, -6.230143]], "type": "LineString"}, "id": 121543559, "properties": {"amenity": "university", "name": "Universitas Dharma Persada"}, "type": "Feature"}, {"geometry": {"coordinates": [[106.9244908, -6.2292656], [106.9244942, -6.2294996], [106.924674, -6.229497], [106.9246758, -6.22962], [106.9245122, -6.2296224], [106.9245153, -6.2298362], [106.9247657, -6.2298326], [106.9247649, -6.2297786], [106.9248657, -6.2297771], [106.9248596, -6.2293601], [106.9247401, -6.2293618], [106.9247386, -6.229262], [106.9244908, -6.2292656]], "type": "LineString"}, "id": 121543561, "properties": {"amenity": "university"}, "type": "Feature"}, {"geometry": {"coordinates": [[106.9236894, -6.230022], [106.9237152, -6.2303494], [106.9240719, -6.2303217], [106.9240461, -6.2299943], [106.9236894, -6.230022]], "type": "LineString"}, "id": 121543564, "properties": {"amenity": "university"}, "type": "Feature"}, {"geometry": {"coordinates": [[106.8888982, -6.1723091], [106.8885265, -6.1721101], [106.8882634, -6.1725252], [106.888435, -6.1725991], [106.8885551, -6.1723773], [106.8887667, -6.172491], [106.8888982, -6.1723091]], "type": "LineString"}, "id": 121919419, "properties": {"access:roof": "no", "addr:full": "Jalan Perintis Kemerdekaan", "amenity": "university", "building": "yes", "building:levels": "10+", "building:roof": "concrete", "building:structure": "confined_masonry", "building:use": "commercial", "building:walls": "brick", "name": "ASMI"}, "type": "Feature"}, {"geometry": {"coordinates": [[106.8327372, -6.240946], [106.83293, -6.2409941], [106.8329418, -6.2409474], [106.8330522, -6.2409749], [106.8330396, -6.2410249], [106.8332833, -6.2410856], [106.8332288, -6.2413018], [106.8326818, -6.2411654], [106.8327372, -6.240946]], "type": "LineString"}, "id": 122140816, "properties": {"amenity": "university", "building": "yes", "building:levels": "2", "building:roof": "tile", "building:structure": "reinforced_masonry", "building:use": "education", "building:walls": "brick", "name": "Universitas Paramadina"}, "type": "Feature"}, {"geometry": {"coordinates": [[106.799272, -6.2356877], [106.7991328, -6.2360553], [106.799048, -6.2360188], [106.7989067, -6.2363116], [106.7988221, -6.2363249], [106.7988218, -6.2365301], [106.7993462, -6.236521], [106.7995324, -6.2358201], [106.799272, -6.2356877]], "type": "LineString"}, "id": 122159900, "properties": {"access:roof": "yes", "addr:city": "Kebayoran Baru , South Jakarta", "addr:full": "Jalan Sisingamangaraja", "addr:postcode": "12110", "addr:street": "Jalan Sisingamangaraja", "amenity": "university", "building": "university", "building:levels": "6", "building:material": "brick", "building:structure": "reinforced_masonry", "capacity:persons": "1000", "name": "Universitas Al Azhar", "roof:material": "tile"}, "type": "Feature"}, {"geometry": {"coordinates": [[106.7856098, -6.1691556], [106.7860963, -6.1690873], [106.7872818, -6.1690406], [106.7873218, -6.1695519], [106.7856077, -6.1695417], [106.7856098, -6.1691556]], "type": "LineString"}, "id": 122159902, "properties": {"access:roof": "no", "amenity": "university", "building": "yes", "building:levels": "10+", "building:roof": "concrete", "building:structure": "confined_masonry", "building:use": "education", "building:walls": "brick", "capacity:persons": "1000", "name": "Universitas Tarumanegara"}, "type": "Feature"}, {"geometry": {"coordinates": [[106.7807838, -6.201765], [106.780824, -6.2022877], [106.7819076, -6.202181], [106.781921, -6.2020877], [106.7825326, -6.2020237], [106.7825192, -6.201909], [106.7824843, -6.201605], [106.7818192, -6.2016797], [106.7807838, -6.201765]], "type": "LineString"}, "id": 153306199, "properties": {"access:roof": "yes", "addr:full": "Jalan kebun jeruk raya no 27", "amenity": "university", "building:levels": "4-7", "building:roof": "asbestos", "building:structure": "unreinforced_masonry", "building:walls": "brick", "name": "Bina Nusantara (Kampus Anggrek)"}, "type": "Feature"}, {"geometry": {"coordinates": [[106.7848916, -6.1999943], [106.7858582, -6.1999046], [106.7859104, -6.2005079], [106.7849157, -6.2006088], [106.7848916, -6.1999943]], "type": "LineString"}, "id": 153306200, "properties": {"access:roof": "yes", "addr:full": "Jalan K.H Syahdan No 9", "amenity": "university", "building:levels": "3", "building:roof": "tile", "building:structure": "reinforced_masonry", "building:walls": "brick", "name": "Bina Nusantara (Kampus Syahdan)"}, "type": "Feature"}, {"geometry": {"coordinates": [[106.7929307, -6.1251883], [106.7930366, -6.1251815], [106.7930372, -6.1252271], [106.7931784, -6.1252248], [106.7931791, -6.1253528], [106.7932962, -6.1253516], [106.793296, -6.1250771], [106.7936825, -6.1250678], [106.7936943, -6.1253827], [106.793844, -6.1253807], [106.793843, -6.1256002], [106.7933863, -6.1256235], [106.7933352, -6.1256636], [106.7933397, -6.125875], [106.792989, -6.1258773], [106.7929831, -6.1256784], [106.7932612, -6.1256659], [106.7932578, -6.1255004], [106.7928599, -6.1255004], [106.792864, -6.1252286], [106.7929307, -6.1251883]], "type": "LineString"}, "id": 154421174, "properties": {"amenity": "university", "building": "yes", "evacuation_center": "no", "flood_prone": "yes", "name": "Atmajaya Medical"}, "type": "Feature"}, {"geometry": {"coordinates": [[106.8871503, -6.1361322], [106.8871163, -6.1362887], [106.8868165, -6.1362243], [106.8867704, -6.1364365], [106.886391, -6.136355], [106.886395, -6.1363365], [106.8863308, -6.1363227], [106.8863505, -6.136232], [106.8863045, -6.1362222], [106.8864006, -6.1357797], [106.8866645, -6.1358339], [106.8867258, -6.1355376], [106.8868909, -6.135573], [106.886862, -6.1357057], [106.8868861, -6.1357108], [106.8869912, -6.1357699], [106.887069, -6.1358617], [106.8871031, -6.1359445], [106.8871142, -6.1360333], [106.8871015, -6.1361219], [106.8871503, -6.1361322]], "type": "LineString"}, "id": 154894838, "properties": {"access:roof": "yes", "amenity": "university", "building": "yes", "building:levels": "4-7", "building:roof": "concrete", "building:structure": "reinforced_masonry", "building:walls": "brick", "capacity:persons": "4000", "name": "Politeknik Manufaktur Astra"}, "type": "Feature"}, {"geometry": {"coordinates": [[106.8419254, -6.1797989], [106.8419404, -6.1799221], [106.8421171, -6.1799008], [106.8421021, -6.1797776], [106.8419254, -6.1797989]], "type": "LineString"}, "id": 155110615, "properties": {"access:roof": "yes", "addr:full": "JL. KRAMAT KWITANG RT 01/ RW 07", "amenity": "university", "building": "yes", "building:levels": "3", "building:roof": "concrete", "building:structure": "reinforced_masonry", "building:walls": "brick", "capacity:persons": "200", "name": "BSI"}, "type": "Feature"}, {"geometry": {"coordinates": [[106.84001, -6.188198], [106.8403774, -6.1884636], [106.8406186, -6.188541], [106.8409525, -6.1885927], [106.8412383, -6.18853], [106.841639, -6.1881758], [106.8416472, -6.1879983], [106.8416131, -6.1878032], [106.8414869, -6.1876963], [106.8408449, -6.1874933], [106.8407818, -6.1875745], [106.8406594, -6.1876925], [106.8402586, -6.188102], [106.8401139, -6.1880873], [106.84001, -6.188198]], "type": "LineString"}, "id": 155112558, "properties": {"access:roof": "yes", "addr:city": "Central Jakarta", "addr:full": "Jl Sekolah Seni No. 1", "addr:housenumber": "1", "addr:postcode": "10330", "addr:street": "Jalan Sekolah Seni", "amenity": "university", "building": "yes", "building:levels": "3", "building:roof": "tile", "building:structure": "reinforced_masonry", "building:walls": "brick", "capacity:persons": "300", "name": "INSTITUT KESENIAN JAKARTA", "operator": "ikj.ac.id"}, "type": "Feature"}, {"geometry": {"coordinates": [[106.8568375, -6.1744607], [106.8567281, -6.1744811], [106.8567281, -6.1743791], [106.8568204, -6.1743587], [106.8568375, -6.1744607]], "type": "LineString"}, "id": 155114218, "properties": {"access:roof": "fix me", "addr:full": "J. Letjen Suprapto Rt 01 Rw 06", "amenity": "university", "building:roof": "tile", "building:walls": "brick"}, "type": "Feature"}, {"geometry": {"coordinates": [[106.8581342, -6.1769488], [106.8583738, -6.1769041], [106.8584088, -6.1770034], [106.8581592, -6.1770431], [106.8581342, -6.1769488]], "type": "LineString"}, "id": 155114219, "properties": {"addr:full": "Jl. Pangkalan Asem Raya Rt 08 Rw 07", "amenity": "university", "building:roof": "tile", "building:walls": "brick", "name": "STIAMI"}, "type": "Feature"}, {"geometry": {"coordinates": [[106.8758116, -6.1714843], [106.8759656, -6.1715162], [106.8760234, -6.1714843], [106.8761164, -6.1714938], [106.8762255, -6.1715162], [106.8763346, -6.1715544], [106.876479, -6.17158], [106.876617, -6.1715959], [106.8767325, -6.171615], [106.8767774, -6.1716406], [106.8766555, -6.1721191], [106.8765945, -6.1723201], [106.8764758, -6.1723201], [106.8763956, -6.1723328], [106.8763539, -6.1724891], [106.8763442, -6.1725465], [106.8761068, -6.1725019], [106.8758661, -6.1724796], [106.8756576, -6.1724572], [106.8754554, -6.1724285], [106.8753399, -6.1724062], [106.8753816, -6.1722212], [106.8754009, -6.1721159], [106.8755004, -6.172135], [106.8755196, -6.1720234], [106.8755485, -6.171883], [106.8756062, -6.1716884], [106.8756287, -6.1715959], [106.8757153, -6.171615], [106.8757667, -6.1715002], [106.8758116, -6.1714843]], "type": "LineString"}, "id": 155259359, "properties": {"access:roof": "yes", "amenity": "university", "building": "yes", "building:levels": "4-7", "building:roof": "concrete", "building:structure": "confined_masonry", "building:walls": "brick", "capacity:persons": "8000", "name": "Universitas Trisakti"}, "type": "Feature"}, {"geometry": {"coordinates": [[106.8688176, -6.1967655], [106.8687385, -6.1969116], [106.8689532, -6.1970407], [106.8688289, -6.1972626], [106.8690436, -6.1974086], [106.8692781, -6.1970042], [106.8688176, -6.1967655]], "type": "LineString"}, "id": 155938154, "properties": {"access:roof": "no", "addr:full": "Jln Balai Rakyat Utan Kayu", "amenity": "university", "building:levels": "3", "building:roof": "tile", "building:structure": "reinforced_masonry", "building:walls": "brick", "name": "Universitas Islam Jakarta"}, "type": "Feature"}, {"geometry": {"coordinates": [[106.9284585, -6.2182035], [106.9284518, -6.218346], [106.9285952, -6.218356], [106.9286085, -6.2182101], [106.9284585, -6.2182035]], "type": "LineString"}, "id": 155941432, "properties": {"access:roof": "yes", "addr:full": "JL. Delima II", "amenity": "university", "building:levels": "3", "building:roof": "tile", "building:structure": "reinforced_masonry", "building:walls": "brick", "name": "UHAMKA"}, "type": "Feature"}, {"geometry": {"coordinates": [[106.9237341, -6.2291124], [106.9236237, -6.229405], [106.9235961, -6.2296977], [106.9236053, -6.2299355], [106.9236329, -6.2301915], [106.9236881, -6.2304567], [106.9239365, -6.2304933], [106.9242953, -6.2304659], [106.9246816, -6.2304384], [106.9249484, -6.2303379], [106.9249576, -6.2301732], [106.9249576, -6.2299446], [106.9249576, -6.2296611], [106.9249576, -6.2293227], [106.9249484, -6.2291398], [106.9245712, -6.2290667], [106.9242125, -6.2290392], [106.9239733, -6.2290484], [106.9237341, -6.2291124]], "type": "LineString"}, "id": 155952116, "properties": {"access:roof": "yes", "addr:full": "Jalan Taman Malaka Utara", "amenity": "university", "building": "yes", "building:levels": "3", "building:roof": "concrete", "building:structure": "reinforced_masonry", "building:walls": "brick", "capacity:persons": "5000", "name": "Universitas Dharma Persada"}, "type": "Feature"}, {"geometry": {"coordinates": [[106.9291085, -6.2339687], [106.9291501, -6.2340978], [106.9292435, -6.2344953], [106.9293058, -6.2347327], [106.9293733, -6.235027], [106.9294253, -6.2352954], [106.9295187, -6.2356413], [106.9294616, -6.2356671], [106.9296018, -6.2363227], [106.9305365, -6.236111], [106.9304171, -6.2356155], [106.930469, -6.2355329], [106.9303236, -6.2350115], [106.9303911, -6.2349031], [106.9303288, -6.2345469], [106.930334, -6.2344798], [106.9302873, -6.234294], [106.9302042, -6.2343094], [106.9301055, -6.2339997], [106.9297472, -6.2340771], [106.9296486, -6.2338448], [106.9291085, -6.2339687]], "type": "LineString"}, "id": 155952190, "properties": {"access:roof": "no", "addr:full": "Jalan Janur", "amenity": "university", "building": "yes", "building:levels": "2", "building:roof": "tile", "building:structure": "reinforced_masonry", "building:walls": "brick", "capacity:persons": "5000", "name": "Tarakanita"}, "type": "Feature"}, {"geometry": {"coordinates": [[106.8790084, -6.1791508], [106.8791941, -6.1791551], [106.8791744, -6.1796438], [106.8789909, -6.1796438], [106.8790084, -6.1791508]], "type": "LineString"}, "id": 155956558, "properties": {"access:roof": "no", "addr:full": "Jalan Pulomas", "amenity": "university", "building:levels": "3", "building:roof": "tile", "building:structure": "reinforced_masonry", "building:walls": "brick", "name": "Universitas Jakarta"}, "type": "Feature"}, {"geometry": {"coordinates": [[106.8722785, -6.2012967], [106.8722432, -6.2015343], [106.8729574, -6.2017125], [106.872971, -6.2012886], [106.8724523, -6.2011806], [106.8724604, -6.2011104], [106.8723681, -6.2010942], [106.8723328, -6.2013048], [106.8722785, -6.2012967]], "type": "LineString"}, "id": 155957103, "properties": {"access:roof": "fix me", "addr:full": "fix me", "amenity": "university", "building": "yes", "building:levels": "fix me", "building:roof": "fix me", "building:structure": "fix me", "building:walls": "fix me", "capacity:persons": "fix me"}, "type": "Feature"}, {"geometry": {"coordinates": [[106.8761436, -6.2368036], [106.8763084, -6.2379261], [106.8775983, -6.2376345], [106.8773492, -6.2366917], [106.8761436, -6.2368036]], "type": "LineString"}, "id": 155957328, "properties": {"access:roof": "yes", "addr:full": "Jalan DI Panjaitan RT 10/03", "amenity": "university", "building": "yes", "building:levels": "4-7", "building:roof": "tile", "building:structure": "reinforced_masonry", "building:walls": "brick", "capacity:persons": "2000", "name": "STIE Nusantara"}, "type": "Feature"}, {"geometry": {"coordinates": [[106.9395817, -6.2245277], [106.9396046, -6.2244152], [106.9396616, -6.224427], [106.9396423, -6.2245505], [106.9398517, -6.2245946], [106.9398421, -6.2246645], [106.9396113, -6.2246034], [106.9396195, -6.2245561], [106.9395785, -6.2245483], [106.9395817, -6.2245277]], "type": "LineString"}, "id": 155957538, "properties": {"access:roof": "yes", "addr:full": "Jalan Malaka Country", "amenity": "university", "building": "yes", "building:levels": "2", "building:roof": "tile", "building:structure": "reinforced_masonry", "building:walls": "brick", "capacity:persons": "1000", "name": "Universitas Insida"}, "type": "Feature"}, {"geometry": {"coordinates": [[106.8618252, -6.2954064], [106.8620426, -6.2952907], [106.8621185, -6.2954365], [106.861896, -6.2955597], [106.8618252, -6.2954064]], "type": "LineString"}, "id": 155957613, "properties": {"amenity": "university", "name": "UNIVERSITAS INDRAPRASTA PGRI"}, "type": "Feature"}, {"geometry": {"coordinates": [[106.8617139, -6.2951952], [106.8619465, -6.2950721], [106.8618757, -6.2949263], [106.8616355, -6.2950369], [106.8617139, -6.2951952]], "type": "LineString"}, "id": 155957616, "properties": {"amenity": "university", "name": "UNIVERSITAS INDRAPRASTA PGRI"}, "type": "Feature"}, {"geometry": {"coordinates": [[106.8878309, -6.2623637], [106.8878949, -6.2625165], [106.8880668, -6.2629267], [106.8882475, -6.2628518], [106.8882797, -6.2629287], [106.8883505, -6.2628994], [106.8883317, -6.2628546], [106.8883943, -6.2628287], [106.8883602, -6.2627474], [106.8884329, -6.2627173], [106.8883995, -6.2626375], [106.8882868, -6.2626842], [106.8882539, -6.2626057], [106.8883245, -6.2625765], [106.888253, -6.2624057], [106.888173, -6.2624388], [106.8880956, -6.2622541], [106.8878309, -6.2623637]], "type": "LineString"}, "id": 155963030, "properties": {"addr:full": "Jl. Komodor Halim P", "amenity": "university", "building:levels": "1", "name": "Universitas Surya Dharma"}, "type": "Feature"}, {"geometry": {"coordinates": [[106.7886113, -6.1688555], [106.7899663, -6.1687807], [106.7911833, -6.1687025], [106.7916645, -6.1686827], [106.7917422, -6.1685371], [106.7917991, -6.168316], [106.7918303, -6.1682939], [106.7919057, -6.168302], [106.7920597, -6.1683715], [106.7921572, -6.16842], [106.7920818, -6.1686405], [106.7919488, -6.1689272], [106.7917359, -6.1690418], [106.7913145, -6.1690815], [106.7913233, -6.1694123], [106.7909108, -6.1694917], [106.7898329, -6.1695534], [106.7887018, -6.1696592], [106.788653, -6.1694167], [106.7886087, -6.1692182], [106.7885865, -6.1689316], [106.7886113, -6.1688555]], "type": "LineString"}, "id": 156917648, "properties": {"access:roof": "yes", "addr:full": "jl. S Parman", "amenity": "university", "building:levels": ">7", "building:roof": "tile", "building:structure": "reinforced_masonry", "building:walls": "brick", "capacity:persons": ">1000", "name": "Universitas Tarumanagara"}, "type": "Feature"}, {"geometry": {"coordinates": [[106.7886239, -6.1687246], [106.7916788, -6.1686373], [106.7917039, -6.168394], [106.7918638, -6.1682405], [106.7923882, -6.1682119], [106.7923882, -6.1680208], [106.7918966, -6.1679996], [106.7919047, -6.1678078], [106.7918294, -6.1668348], [106.7900165, -6.1669845], [106.7894205, -6.1670843], [106.7890881, -6.1672402], [106.7887932, -6.167577], [106.7886741, -6.1680011], [106.7886427, -6.1686185], [106.7886239, -6.1687246]], "type": "LineString"}, "id": 156917649, "properties": {"access:roof": "yes", "addr:full": "jl. tomang raya", "amenity": "university", "building:levels": ">7", "building:roof": "tile", "building:structure": "reinforced_masonry", "building:walls": "brick", "capacity:persons": ">1000", "name": "Unversitas Trisakti"}, "type": "Feature"}, {"geometry": {"coordinates": [[106.7882747, -6.193843], [106.788408, -6.1938377], [106.7884259, -6.193733], [106.7882924, -6.1936947], [106.7883438, -6.1933782], [106.7878899, -6.1933045], [106.787781, -6.1937976], [106.7877102, -6.1937845], [106.787509, -6.1943658], [106.7876254, -6.1945255], [106.7879312, -6.1945042], [106.7879446, -6.1944295], [106.7881929, -6.1944378], [106.7882747, -6.193843]], "type": "LineString"}, "id": 156917698, "properties": {"access:roof": "no", "addr:city": "Kemanggisan, West Jakarta", "addr:full": "Jln Kemanggisan Ilir", "addr:housenumber": "3", "addr:postcode": "11480", "addr:street": "Jl. Kemanggisan Ilir", "amenity": "university", "building": "yes", "building:levels": "2", "building:roof": "tile", "building:structure": "reinforced_masonry", "building:walls": "brick", "capacity:persons": "500", "name": "Binus University - Kijang Campus"}, "type": "Feature"}, {"geometry": {"coordinates": [[106.7957592, -6.1986729], [106.795794, -6.1987995], [106.7958982, -6.1987611], [106.7958596, -6.1986499], [106.7957592, -6.1986729]], "type": "LineString"}, "id": 156921630, "properties": {"access:roof": "no", "addr:full": "Jln Anggrek Cendrawasih", "amenity": "university", "building:levels": "2", "building:roof": "tile", "building:structure": "reinforced_masonry", "building:walls": "brick", "name": "IGI"}, "type": "Feature"}, {"geometry": {"coordinates": [[106.7881627, -6.1721329], [106.7881553, -6.1725277], [106.7883377, -6.1725311], [106.7883372, -6.1725595], [106.788468, -6.1725619], [106.7884678, -6.1725734], [106.7884341, -6.1725728], [106.788427, -6.1729497], [106.7886302, -6.1729535], [106.7886372, -6.1725757], [106.7885748, -6.1725745], [106.788577, -6.1724551], [106.7883348, -6.1724506], [106.7883407, -6.1721361], [106.7881627, -6.1721329]], "type": "LineString"}, "id": 156922064, "properties": {"access:roof": "yes", "addr:full": "Jl. Tg. Duren Raya", "amenity": "university", "building": "yes", "building:levels": "4-7", "building:roof": "tile", "building:structure": "reinforced_masonry", "building:walls": "brick", "capacity:persons": "500", "name": "UKRIDA"}, "type": "Feature"}, {"geometry": {"coordinates": [[106.737915, -6.2107958], [106.7394573, -6.2108429], [106.740264, -6.2109168], [106.7402354, -6.2107291], [106.7403057, -6.2104065], [106.7399795, -6.2098289], [106.7395635, -6.2097067], [106.7394414, -6.2092779], [106.7392533, -6.2083455], [106.7381264, -6.2086509], [106.7379945, -6.2090073], [106.7380796, -6.2094977], [106.7380019, -6.2102245], [106.737915, -6.2107958]], "type": "LineString"}, "id": 156922212, "properties": {"access:roof": "yes", "addr:city": "Meruya Selatan, Kembangan, West Jakarta", "addr:full": "Jalan Raya Meruya Selatan", "addr:housenumber": "No. 1", "addr:postcode": "11650", "addr:street": "Jl. Meruya Selatan", "amenity": "university", "building:levels": ">7", "building:roof": "tile", "building:structure": "reinforced_masonry", "building:walls": "brick", "capacity:persons": "Lebih dari 1000", "name": "Universitas Mercubuana"}, "type": "Feature"}, {"geometry": {"coordinates": [[106.7612475, -6.1855771], [106.7607704, -6.1856029], [106.760789, -6.1859641], [106.7613988, -6.1859348], [106.7613928, -6.1857935], [106.7612559, -6.1857975], [106.7612475, -6.1855771]], "type": "LineString"}, "id": 156923935, "properties": {"access:roof": "no", "addr:full": "Jl. Kedoya Al-Kamal RT 07 RW 03", "amenity": "university", "building": "yes", "building:levels": "2", "building:roof": "tile", "building:walls": "brick", "capacity:persons": "2000", "name": "Universitas Yayasan Al-Kamal"}, "type": "Feature"}, {"geometry": {"coordinates": [[106.7967759, -6.1666244], [106.7970918, -6.1667109], [106.7970277, -6.1670477], [106.7971375, -6.1670886], [106.7971009, -6.1671751], [106.797284, -6.1672297], [106.7971833, -6.1675483], [106.7965333, -6.1673708], [106.7967759, -6.1666244]], "type": "LineString"}, "id": 156926460, "properties": {"access:roof": "yes", "addr:full": "jl. kyai tapa", "amenity": "university", "building:levels": ">7", "building:roof": "concrete", "building:structure": "reinforced_masonry", "building:walls": "brick", "name": "FKG trisakti"}, "type": "Feature"}, {"geometry": {"coordinates": [[106.7972666, -6.1731598], [106.7974198, -6.1731678], [106.7974632, -6.173178], [106.7975079, -6.173178], [106.797572, -6.1731951], [106.7976165, -6.1732717], [106.7973236, -6.1735205], [106.7972424, -6.1733066], [106.7972666, -6.1731598]], "type": "LineString"}, "id": 156926480, "properties": {"access:roof": "yes", "addr:full": "jl. gelong baru utara", "amenity": "university", "building": "yes", "building:levels": "4-7", "building:roof": "tile", "building:structure": "reinforced_masonry", "building:walls": "brick", "capacity:persons": ">500", "name": "UTIRA"}, "type": "Feature"}, {"geometry": {"coordinates": [[106.7937499, -6.1668982], [106.7939124, -6.1668903], [106.793909, -6.1667924], [106.7936286, -6.1668106], [106.7934981, -6.1671372], [106.7936526, -6.167185], [106.7937499, -6.1668982]], "type": "LineString"}, "id": 156926481, "properties": {"access:roof": "yes", "addr:full": "jl. kyai tapa", "amenity": "university", "building": "yes", "building:levels": "3", "building:roof": "concrete", "building:structure": "reinforced_masonry", "building:walls": "brick", "capacity:persons": ">500", "name": "Universitas Trisakti"}, "type": "Feature"}, {"geometry": {"coordinates": [[106.7942071, -6.1669051], [106.7944758, -6.166889], [106.7944984, -6.1670403], [106.7945405, -6.1670339], [106.7945534, -6.1673493], [106.7941941, -6.1673589], [106.7941585, -6.1669116], [106.7942071, -6.1669051]], "type": "LineString"}, "id": 156926482, "properties": {"access:roof": "yes", "addr:full": "jl. kyai tapa", "amenity": "university", "building": "yes", "building:levels": "4-7", "building:roof": "concrete", "building:structure": "reinforced_masonry", "building:walls": "brick", "capacity:persons": ">1000", "name": "Universitas Trisakti"}, "type": "Feature"}, {"geometry": {"coordinates": [[106.7333351, -6.1343916], [106.7333327, -6.1345424], [106.7334675, -6.1345424], [106.7334595, -6.1343645], [106.7333959, -6.1343644], [106.7333791, -6.134379], [106.7333457, -6.1343494], [106.7333351, -6.1343916]], "type": "LineString"}, "id": 156928801, "properties": {"access:roof": "no", "addr:city": "RW 11", "addr:full": "Jalan Perumahan Mutiara Taman Palem", "addr:postcode": "11730", "addr:street": "Jalan Boulevard Raya", "amenity": "university", "building:levels": "2", "building:roof": "tile", "building:structure": "reinforced_masonry", "building:walls": "brick", "internet_access": "yes", "level": "3", "name": "Kampus Gunadarma", "operator": "Yayasan Pendidikan Gunadarma"}, "type": "Feature"}, {"geometry": {"coordinates": [[106.780171, -6.1848445], [106.7797995, -6.1850065], [106.7797445, -6.1851467], [106.7796403, -6.1854098], [106.7798109, -6.1854814], [106.7797616, -6.1857565], [106.7798033, -6.1858997], [106.7808837, -6.1855568], [106.7804781, -6.185455], [106.7803454, -6.1852967], [106.780171, -6.1848445]], "type": "LineString"}, "id": 157205905, "properties": {"access:roof": "yes", "addr:full": "jl arjuna selatan", "amenity": "university", "building": "yes", "building:levels": "4-7", "building:roof": "concrete", "building:structure": "reinforced_masonry", "building:walls": "brick", "capacity:persons": ">1000", "name": "Fakultas Kedokteran UKRIDA"}, "type": "Feature"}, {"geometry": {"coordinates": [[106.7790198, -6.1848547], [106.7785915, -6.1857743], [106.7786218, -6.1859062], [106.7786984, -6.185954], [106.7788229, -6.1860317], [106.7788831, -6.1860506], [106.7789397, -6.1860683], [106.7790118, -6.1860612], [106.7790356, -6.186009], [106.7790332, -6.1859093], [106.7791163, -6.1857334], [106.7791592, -6.1855789], [106.7793603, -6.1849606], [106.7790359, -6.1848194], [106.7790198, -6.1848547]], "type": "LineString"}, "id": 157205932, "properties": {"access:roof": "yes", "addr:full": "jl arjuna selatan", "amenity": "university", "building": "yes", "building:levels": ">7", "building:roof": "concrete", "building:structure": "reinforced_masonry", "building:walls": "brick", "capacity:persons": ">2000", "name": "Universitas Esa Unggul"}, "type": "Feature"}, {"geometry": {"coordinates": [[106.8252406, -6.2103905], [106.825181, -6.2105307], [106.8251095, -6.2106728], [106.8254868, -6.2108663], [106.8256263, -6.210921], [106.8257609, -6.2106551], [106.8257748, -6.2106057], [106.8252406, -6.2103905]], "type": "LineString"}, "id": 157344282, "properties": {"access:roof": "yes", "addr:full": "Jl. Setiabudi 1", "amenity": "university", "building": "university", "building:levels": "2", "building:roof": "tile", "building:structure": "reinforced_masonry", "building:walls": "brick", "name": "Universitas Negeri Jakarta"}, "type": "Feature"}, {"geometry": {"coordinates": [[106.8354356, -6.2798571], [106.8354356, -6.2800928], [106.8352684, -6.2800928], [106.8352684, -6.2798571], [106.8354356, -6.2798571]], "type": "LineString"}, "id": 157348295, "properties": {"access:roof": "yes", "addr:full": "RT 008 RW 010", "amenity": "university", "building": "yes", "building:levels": "3", "building:roof": "tile", "building:structure": "plastered", "building:walls": "brick", "capacity:persons": "600 ORANG", "name": "NEXT ACADEMY"}, "type": "Feature"}, {"geometry": {"coordinates": [[106.7519653, -6.2422481], [106.7523179, -6.2422577], [106.7523129, -6.2424873], [106.7521897, -6.2424111], [106.7520466, -6.2425288], [106.7520273, -6.242548], [106.7520309, -6.2423577], [106.7519645, -6.2423589], [106.7519653, -6.2422481]], "type": "LineString"}, "id": 157354751, "properties": {"access:roof": "yes", "addr:full": "Jl. Kemajuan RW04", "amenity": "university", "building": "yes", "building:levels": "3", "building:roof": "concrete", "building:structure": "reinforced_masonry", "building:walls": "brick", "capacity:persons": "600", "name": "STIE Bakti Pembangunan"}, "type": "Feature"}, {"geometry": {"coordinates": [[106.8598361, -6.2239527], [106.8599492, -6.2239471], [106.8599878, -6.2239452], [106.8600166, -6.2239438], [106.86004, -6.2244123], [106.8600414, -6.2244399], [106.8598608, -6.2244488], [106.8598361, -6.2239527]], "type": "LineString"}, "id": 157355130, "properties": {"access:roof": "no", "addr:full": "jalan kp. melayu kecil 3", "amenity": "university", "building": "yes", "building:levels": "3", "building:roof": "tile", "building:structure": "reinforced_masonry", "building:walls": "brick", "capacity:persons": "<400 orang", "evacuation_center": "no", "flood_prone": "no", "name": "Universitas Islam Atahiriyah"}, "type": "Feature"}, {"geometry": {"coordinates": [[106.7808904, -6.2570173], [106.7809005, -6.2571878], [106.7815461, -6.2571878], [106.7815327, -6.2570206], [106.7808904, -6.2570173]], "type": "LineString"}, "id": 157357077, "properties": {"amenity": "university", "building": "university"}, "type": "Feature"}, {"geometry": {"coordinates": [[106.8333124, -6.2058368], [106.833695, -6.2059131], [106.8336751, -6.2060178], [106.8333963, -6.2059669], [106.8333821, -6.2060545], [106.8332683, -6.2060277], [106.833301, -6.2058778], [106.8332825, -6.2058721], [106.8332939, -6.2058311], [106.8333124, -6.2058368]], "type": "LineString"}, "id": 157358528, "properties": {"access:roof": "yes", "addr:full": "Jalan Halimun Raya No. 13", "amenity": "university", "building": "yes", "building:levels": "2", "building:roof": "tile", "building:structure": "reinforced_masonry", "building:walls": "brick", "capacity:persons": "300", "name": "Pasca Sarjana Universitas Brawijaya"}, "type": "Feature"}, {"geometry": {"coordinates": [[106.8333486, -6.2055273], [106.8337416, -6.2055991], [106.8336887, -6.2058852], [106.8333681, -6.2058266], [106.8333868, -6.2057256], [106.8334079, -6.2057295], [106.8334212, -6.205658], [106.8333276, -6.2056409], [106.8333486, -6.2055273]], "type": "LineString"}, "id": 157358552, "properties": {"access:roof": "yes", "addr:full": "Jalan Halimun Raya", "amenity": "university", "building": "yes", "building:levels": "2", "building:roof": "tile", "building:structure": "reinforced_masonry", "building:walls": "brick", "capacity:persons": "100", "name": "Universitas Negeri Jakarta"}, "type": "Feature"}, {"geometry": {"coordinates": [[106.7903957, -6.208281], [106.7905032, -6.2084318], [106.7907042, -6.2082951], [106.7906002, -6.2081426], [106.7903957, -6.208281]], "type": "LineString"}, "id": 157359522, "properties": {"access:roof": "yes", "addr:full": "Jl. Palmerah Barat", "amenity": "university", "building": "yes", "building:levels": "3", "building:roof": "tile", "building:structure": "reinforced_masonry", "building:walls": "brick", "capacity:persons": "fix me"}, "type": "Feature"}, {"geometry": {"coordinates": [[106.8504135, -6.3028493], [106.8505462, -6.3032344], [106.8507164, -6.3031765], [106.8505837, -6.3027914], [106.8504135, -6.3028493]], "type": "LineString"}, "id": 157359890, "properties": {"addr:full": "Jalan Nangka RT 005 RW 005", "amenity": "university", "building": "university", "building:roof": "tile", "building:structure": "reinforced_masonry", "building:walls": "brick", "name": "Universitas Indraprasta"}, "type": "Feature"}, {"geometry": {"coordinates": [[106.7905438, -6.2472903], [106.7908165, -6.2479621], [106.7910299, -6.2482921], [106.7912373, -6.2484394], [106.7912966, -6.2479856], [106.7913144, -6.247361], [106.7905438, -6.2472903]], "type": "LineString"}, "id": 157360363, "properties": {"access:roof": "no", "addr:full": "Jln. Limau", "amenity": "university", "building": "yes", "building:levels": "3", "building:roof": "tile", "building:structure": "reinforced_masonry", "building:walls": "brick", "capacity:persons": "200", "name": "UHAMKA"}, "type": "Feature"}, {"geometry": {"coordinates": [[106.8622946, -6.223432], [106.862374, -6.223432], [106.862374, -6.2235701], [106.8622945, -6.2235701], [106.8622946, -6.223432]], "type": "LineString"}, "id": 157360672, "properties": {"access:roof": "no", "addr:full": "JALAN KP.MELAYU KECIL", "amenity": "university", "building": "yes", "building:levels": "1", "building:roof": "tile", "building:structure": "plastered", "building:walls": "brick", "capacity:persons": "100", "name": "UNIV. KRISANTI WIDYA MANDIRI"}, "type": "Feature"}, {"geometry": {"coordinates": [[106.828592, -6.2175323], [106.828938, -6.2174945], [106.8289631, -6.2177217], [106.8286171, -6.2177594], [106.828592, -6.2175323]], "type": "LineString"}, "id": 157361025, "properties": {"access:roof": "no", "addr:full": "jl. Perbanas", "amenity": "university", "building": "yes", "building:levels": "4-7", "building:roof": "concrete", "building:structure": "reinforced_masonry", "building:walls": "brick", "capacity:persons": "1000", "name": "STIE Perbanas"}, "type": "Feature"}, {"geometry": {"coordinates": [[106.8324859, -6.3369616], [106.834385, -6.337325], [106.8333594, -6.3411958], [106.8318816, -6.340782], [106.8321203, -6.3399241], [106.8325925, -6.3398383], [106.8327449, -6.3389298], [106.8329581, -6.338082], [106.8322726, -6.3379205], [106.8325316, -6.3375521], [106.8323843, -6.3371029], [106.8324859, -6.3369616]], "type": "LineString"}, "id": 157361171, "properties": {"access:roof": "yes", "amenity": "university", "building": "university", "building:levels": "4-7", "building:roof": "tile", "building:structure": "reinforced_masonry", "building:walls": "brick", "name": "Universitas Pancasila"}, "type": "Feature"}, {"geometry": {"coordinates": [[106.8278359, -6.2797877], [106.8282519, -6.2799543], [106.8277199, -6.2810247], [106.8273104, -6.2808324], [106.8278359, -6.2797877]], "type": "LineString"}, "id": 157362118, "properties": {"access:roof": "yes", "addr:full": "jl. warung jati barat", "amenity": "university", "building": "yes", "building:levels": "4-7", "building:roof": "concrete", "building:structure": "reinforced_masonry", "building:walls": "brick", "capacity:persons": "1000", "name": "LIPIA"}, "type": "Feature"}, {"geometry": {"coordinates": [[106.817014, -6.2927587], [106.8173882, -6.2928118], [106.8173481, -6.2930904], [106.8169739, -6.2930373], [106.817014, -6.2927587]], "type": "LineString"}, "id": 157363165, "properties": {"access:roof": "yes", "addr:full": "jl. cilandak KKO", "amenity": "university", "building": "yes", "building:levels": "4-7", "building:roof": "concrete", "building:structure": "reinforced_masonry", "building:walls": "brick", "capacity:persons": "700", "name": "UNTAR"}, "type": "Feature"}, {"geometry": {"coordinates": [[106.7856003, -6.2336794], [106.7854934, -6.2338334], [106.7855283, -6.2338768], [106.7854629, -6.233983], [106.7853539, -6.2339331], [106.7852383, -6.2341174], [106.7853059, -6.2341825], [106.7852492, -6.2342887], [106.785175, -6.234254], [106.785066, -6.2344253], [106.7852775, -6.2345662], [106.7853757, -6.2343884], [106.7853408, -6.2343516], [106.7854106, -6.2342475], [106.7854716, -6.2342844], [106.7855632, -6.2341586], [106.7855065, -6.2341088], [106.7855763, -6.2339526], [106.7857355, -6.234048], [106.7859079, -6.2338919], [106.7856003, -6.2336794]], "type": "LineString"}, "id": 157364414, "properties": {"access:roof": "yes", "addr:full": "JL Teuku Nyak Arief RW 02", "amenity": "university", "building": "yes", "building:levels": ">7", "building:roof": "concrete", "building:structure": "reinforced_masonry", "building:walls": "brick", "capacity:persons": "> 2000 orang", "name": "Universitas Bina Nusantara"}, "type": "Feature"}, {"geometry": {"coordinates": [[106.8490924, -6.2524713], [106.8491357, -6.2523812], [106.8492263, -6.2523577], [106.8493366, -6.2523891], [106.8493918, -6.2525105], [106.8495415, -6.2525379], [106.8494884, -6.253266], [106.8494587, -6.2536735], [106.8494272, -6.2540455], [106.8492815, -6.2540494], [106.84899, -6.2539946], [106.8488009, -6.2539868], [106.8486354, -6.253975], [106.8485685, -6.2539319], [106.8485882, -6.2537596], [106.8486039, -6.2535873], [106.8487812, -6.2536108], [106.8488206, -6.2535638], [106.84886, -6.2534855], [106.8487969, -6.2533798], [106.848793, -6.2533054], [106.8488521, -6.2531997], [106.8489112, -6.2531487], [106.8488994, -6.2530704], [106.8489191, -6.2526162], [106.84899, -6.2526123], [106.84899, -6.2525222], [106.8490924, -6.2524713]], "type": "LineString"}, "id": 157364898, "properties": {"access:roof": "yes", "addr:full": "jl.duren tiga timur", "amenity": "university", "building": "university", "building:levels": "4-7", "building:roof": "tile", "building:structure": "reinforced_masonry", "building:walls": "brick", "name": "STEKPI"}, "type": "Feature"}, {"geometry": {"coordinates": [[106.7829292, -6.2413057], [106.7835772, -6.241353], [106.7836061, -6.2414025], [106.783698, -6.2414166], [106.7836449, -6.2417242], [106.7837899, -6.2417666], [106.7837938, -6.2418721], [106.7840824, -6.2419236], [106.7840216, -6.2423675], [106.7838377, -6.2426636], [106.7829865, -6.2422087], [106.7828438, -6.2421274], [106.7829292, -6.2413057]], "type": "LineString"}, "id": 157367790, "properties": {"access:roof": "yes", "addr:full": "Jl. Sultan Iskandar Muda", "amenity": "university", "building": "yes", "building:levels": "4-7", "building:roof": "tile", "building:structure": "reinforced_masonry", "building:walls": "brick", "capacity:persons": "600", "name": "Universitas Satya Negara Indonesia"}, "type": "Feature"}, {"geometry": {"coordinates": [[106.8444217, -6.2145144], [106.844743, -6.2146316], [106.8447569, -6.2146063], [106.8451221, -6.2147856], [106.845032, -6.2151394], [106.8441814, -6.21482], [106.8443452, -6.2144851], [106.8444217, -6.2145144]], "type": "LineString"}, "id": 157368467, "properties": {"access:roof": "yes", "addr:full": "Jalan Dr Saharjo", "amenity": "university", "building": "yes", "building:levels": ">7", "building:roof": "tile", "building:structure": "reinforced_masonry", "building:walls": "brick", "capacity:persons": ">2000", "name": "Universitas Gajah Mada"}, "type": "Feature"}, {"geometry": {"coordinates": [[106.7376128, -6.3450867], [106.7376782, -6.3446611], [106.7374358, -6.3446171], [106.7375258, -6.3441143], [106.7372281, -6.3440666], [106.7372624, -6.3438187], [106.7368076, -6.3437255], [106.736397, -6.3442337], [106.7364289, -6.3443692], [106.7365598, -6.3443445], [106.7365952, -6.3449144], [106.7376128, -6.3450867]], "type": "LineString"}, "id": 162216830, "properties": {"amenity": "university", "name": "Universitas Pamulang"}, "type": "Feature"}, {"geometry": {"coordinates": [[106.7509038, -6.3464715], [106.7509209, -6.3466544], [106.7511863, -6.3466218], [106.7511535, -6.3462957], [106.7511078, -6.345842], [106.7509238, -6.3458718], [106.7509766, -6.3464602], [106.7509038, -6.3464715]], "type": "LineString"}, "id": 174094685, "properties": {"amenity": "university", "name": "Politeknik Swadharma"}, "type": "Feature"}, {"geometry": {"coordinates": [[106.7535923, -6.3554414], [106.7535819, -6.3554943], [106.7535134, -6.3554809], [106.7534953, -6.3555728], [106.75358, -6.3555893], [106.7535635, -6.3556727], [106.7538798, -6.3557345], [106.753887, -6.355698], [106.7539488, -6.3557101], [106.7539867, -6.3555184], [106.7535923, -6.3554414]], "type": "LineString"}, "id": 174249319, "properties": {"amenity": "university", "name": "Universitas Sahid Jaya"}, "type": "Feature"}, {"geometry": {"coordinates": [[106.7536308, -6.3565232], [106.7536126, -6.3565072], [106.7535072, -6.3564146], [106.7534591, -6.3564687], [106.7534834, -6.3564901], [106.7534543, -6.3565229], [106.7535696, -6.3566242], [106.7536039, -6.3565856], [106.7536525, -6.3566283], [106.753727, -6.3565444], [106.7536624, -6.3564877], [106.7536308, -6.3565232]], "type": "LineString"}, "id": 174249320, "properties": {"amenity": "university", "name": "Universitas Sahid Jaya"}, "type": "Feature"}, {"geometry": {"coordinates": [[106.753607, -6.3558938], [106.7535751, -6.3560483], [106.7542828, -6.3561927], [106.7543147, -6.3560382], [106.753607, -6.3558938]], "type": "LineString"}, "id": 174249321, "properties": {"amenity": "university", "name": "Universitas Sahid Jaya"}, "type": "Feature"}, {"geometry": {"coordinates": [[106.7533157, -6.3554575], [106.753274, -6.3556972], [106.7534212, -6.3557225], [106.7534629, -6.3554829], [106.7533157, -6.3554575]], "type": "LineString"}, "id": 174249322, "properties": {"amenity": "university", "name": "Universitas Sahid Jaya"}, "type": "Feature"}, {"geometry": {"coordinates": [[106.7538607, -6.3561387], [106.7538419, -6.3562606], [106.754043, -6.3562913], [106.7540618, -6.3561694], [106.7538607, -6.3561387]], "type": "LineString"}, "id": 174249323, "properties": {"amenity": "university", "name": "Universitas Sahid Jaya"}, "type": "Feature"}, {"geometry": {"coordinates": [[106.7530987, -6.3563085], [106.7531518, -6.3560274], [106.7534272, -6.3560788], [106.7533741, -6.3563599], [106.7530987, -6.3563085]], "type": "LineString"}, "id": 174249324, "properties": {"amenity": "university", "name": "Universitas Sahid Jaya"}, "type": "Feature"}, {"geometry": {"coordinates": [[106.7544342, -6.356472], [106.7544198, -6.3565257], [106.7545421, -6.3565581], [106.7545565, -6.3565045], [106.7544342, -6.356472]], "type": "LineString"}, "id": 174249325, "properties": {"amenity": "university", "name": "Universitas Sahid Jaya"}, "type": "Feature"}, {"geometry": {"coordinates": [[106.7531752, -6.3558024], [106.7531334, -6.3560239], [106.7534272, -6.3560788], [106.7534508, -6.3560832], [106.7534927, -6.3558616], [106.7531752, -6.3558024]], "type": "LineString"}, "id": 174249326, "properties": {"amenity": "university", "name": "Universitas Sahid Jaya"}, "type": "Feature"}, {"geometry": {"coordinates": [[106.8328205, -6.2417088], [106.8328807, -6.2417125], [106.8329508, -6.2417168], [106.8329485, -6.2417523], [106.8329831, -6.2417544], [106.8329842, -6.241737], [106.8330207, -6.2417393], [106.8330175, -6.2417907], [106.833003, -6.2417899], [106.8330017, -6.2418105], [106.833, -6.2418382], [106.8330238, -6.2418397], [106.8330346, -6.2418404], [106.8330363, -6.2418128], [106.8330375, -6.2417937], [106.8330743, -6.2417959], [106.833063, -6.2419772], [106.8330089, -6.2419739], [106.8330067, -6.2420081], [106.8329321, -6.2420035], [106.83294, -6.2418773], [106.832907, -6.2418753], [106.8329091, -6.241841], [106.8328425, -6.2418369], [106.8328448, -6.2418002], [106.8327977, -6.2417972], [106.8328033, -6.2417077], [106.8328205, -6.2417088]], "type": "LineString"}, "id": 218820173, "properties": {"amenity": "university", "name": "Universitas Paramadina"}, "type": "Feature"}, {"geometry": {"coordinates": [[106.8756907, -6.2253277], [106.8756639, -6.2255143], [106.8760501, -6.2255943], [106.8760555, -6.225381], [106.8756907, -6.2253277]], "type": "LineString"}, "id": 234852840, "properties": {"addr:city": "jakarta", "addr:housename": "JL cipinang Besar", "addr:housenumber": "1a", "amenity": "university", "name": "Universitas Mpu Tantular"}, "type": "Feature"}, {"geometry": {"coordinates": [[106.876651, -6.2253117], [106.8765866, -6.225701], [106.8767958, -6.2257276], [106.8768494, -6.225301], [106.876651, -6.2253117]], "type": "LineString"}, "id": 234852841, "properties": {"addr:city": "jakarta", "addr:housename": "JL Cipinang besar", "addr:housenumber": "2", "amenity": "university", "name": "Universitas Mpu Tantular kampus B"}, "type": "Feature"}, {"geometry": {"coordinates": [[106.8463368, -6.2002288], [106.8464199, -6.2001222], [106.8469497, -6.2005595], [106.8468544, -6.2006715], [106.8463368, -6.2002288]], "type": "LineString"}, "id": 235429368, "properties": {"amenity": "university", "building": "yes", "name": "Pascasarjana Universitas Pancasila"}, "type": "Feature"}, {"geometry": {"coordinates": [[106.7593217, -6.3366417], [106.7590374, -6.3366257], [106.758694, -6.3365884], [106.7582917, -6.336615], [106.7582649, -6.3365617], [106.7581522, -6.3365884], [106.7580342, -6.3365671], [106.7579885, -6.3366434], [106.7577997, -6.3366165], [106.7577673, -6.3368798], [106.7579909, -6.3368857], [106.7580248, -6.3369548], [106.7580652, -6.3369469], [106.758104, -6.3369883], [106.7581864, -6.3370045], [106.7582321, -6.3370238], [106.7582735, -6.3370662], [106.7582981, -6.3371112], [106.7583192, -6.3372162], [106.7583378, -6.337478], [106.7583221, -6.3375855], [106.7583652, -6.3378621], [106.75839, -6.3380541], [106.7583676, -6.3381259], [106.7583113, -6.338178], [106.7582245, -6.3381874], [106.7581539, -6.3381795], [106.7581297, -6.3381297], [106.7578196, -6.3381288], [106.7578196, -6.3382465], [106.7580545, -6.3382548], [106.7580531, -6.3384883], [106.7581751, -6.338495], [106.7581352, -6.3388071], [106.7580981, -6.3393121], [106.7582303, -6.3393105], [106.7582302, -6.3395776], [106.7582866, -6.3395788], [106.7582864, -6.339862], [106.7582166, -6.339862], [106.7582112, -6.3400486], [106.7583185, -6.3400486], [106.7583293, -6.3401446], [106.7582756, -6.3401446], [106.7582756, -6.3402352], [106.7581898, -6.3402512], [106.7581898, -6.3403952], [106.7583883, -6.3404165], [106.7584097, -6.3405285], [106.7584258, -6.3405498], [106.758399, -6.3414988], [106.7581469, -6.3414988], [106.7581469, -6.3416214], [106.7581469, -6.3416534], [106.7584744, -6.3416654], [106.7584312, -6.3423519], [106.7575192, -6.3423252], [106.7575192, -6.3425864], [106.7578736, -6.3425931], [106.7579055, -6.3428368], [106.7578304, -6.3428581], [106.7578572, -6.343082], [106.7578036, -6.343098], [106.7578143, -6.3438658], [106.7583242, -6.3439473], [106.7583829, -6.3442816], [106.7581791, -6.3443616], [106.7579806, -6.3443029], [106.7574441, -6.3449694], [106.75834, -6.3449747], [106.7588067, -6.3449214], [106.7591983, -6.3448254], [106.7590052, -6.3445002], [106.7595309, -6.3444469], [106.7595687, -6.3436328], [106.759032, -6.3436472], [106.7590269, -6.3432169], [106.7591503, -6.342865], [106.7592037, -6.3425118], [106.7596435, -6.3424212], [106.7597347, -6.3413602], [106.7596328, -6.340779], [106.7598423, -6.3404018], [106.7598823, -6.3400777], [106.7598243, -6.3398732], [106.7597425, -6.3397061], [106.759724, -6.3395634], [106.7597618, -6.3394581], [106.7598799, -6.3394368], [106.7598206, -6.3391209], [106.7596435, -6.3391316], [106.7592895, -6.3390036], [106.7593595, -6.338861], [106.7594558, -6.3389076], [106.7594829, -6.3386637], [106.7596114, -6.3386731], [106.7596865, -6.338689], [106.7597186, -6.338785], [106.760132, -6.338781], [106.7601317, -6.3384225], [106.760003, -6.3384438], [106.7599922, -6.3383425], [106.76018, -6.3383158], [106.7600322, -6.3381686], [106.7599858, -6.3378012], [106.7598193, -6.3377921], [106.7597026, -6.3374574], [106.7594191, -6.3375448], [106.7593943, -6.3374322], [106.7593748, -6.3372718], [106.7595524, -6.3372388], [106.7595258, -6.3368382], [106.7593378, -6.3368443], [106.7593217, -6.3366417]], "type": "LineString"}, "id": 248297920, "properties": {"addr:housename": "Universitas Terbuka", "addr:postcode": "15418", "addr:street": "Pondok Cabe Raya", "alt_name": "UT", "amenity": "university", "int_name": "Open University of Indonesia", "name": "Universitas Terbuka", "old_name": "UT"}, "type": "Feature"}, {"geometry": {"coordinates": [[106.8643909, -6.2518187], [106.864303, -6.2520577], [106.86443, -6.2521039], [106.8645179, -6.2518649], [106.8643909, -6.2518187]], "type": "LineString"}, "id": 315708106, "properties": {"amenity": "university", "building": "yes", "evacuation_center": "no", "flood_prone": "no", "name": "Universitas Suropati"}, "type": "Feature"}, {"geometry": {"coordinates": [[106.866495, -6.2488954], [106.8664249, -6.2490703], [106.8665447, -6.2491178], [106.8666148, -6.2489428], [106.866495, -6.2488954]], "type": "LineString"}, "id": 315718643, "properties": {"amenity": "university", "building": "yes", "evacuation_center": "no", "flood_prone": "no", "name": "BSI"}, "type": "Feature"}, {"geometry": {"coordinates": [[106.8050477, -6.2448798], [106.8058424, -6.2441214], [106.805906, -6.2440607], [106.8064513, -6.2431802], [106.8069949, -6.2433293], [106.8074756, -6.2434061], [106.8080338, -6.2432549], [106.8082377, -6.2440719], [106.8080896, -6.2448438], [106.8079085, -6.2452901], [106.8066403, -6.2468102], [106.8050477, -6.2448798]], "type": "LineString"}, "id": 336068420, "properties": {"amenity": "university", "name": "Perguruan Tinggi Ilmu Kepolisian", "operator": "Polri"}, "type": "Feature"}, {"geometry": {"coordinates": [[106.731909, -6.144436], [106.7319332, -6.1443226], [106.7321511, -6.1433025], [106.7321617, -6.1432528], [106.7298024, -6.1427341], [106.7296885, -6.1428146], [106.7295207, -6.143634], [106.7299432, -6.1436667], [106.7299657, -6.1438574], [106.7310201, -6.144155], [106.7313631, -6.144357], [106.731909, -6.144436]], "type": "LineString"}, "id": 358577179, "properties": {"amenity": "university", "name": "Universtas SatyaGama"}, "type": "Feature"}, {"geometry": {"coordinates": [[106.8691042, -6.1951447], [106.8692013, -6.1952421], [106.8690733, -6.1953682], [106.8689762, -6.1952708], [106.8691042, -6.1951447]], "type": "LineString"}, "id": 363842568, "properties": {"access:roof": "yes", "amenity": "university", "building": "yes", "building:levels": "4-7", "building:roof": "concrete", "building:structure": "reinforced_masonry", "building:walls": "brick", "capacity:persons": "500", "name": "Atro Nusantara Jakarta"}, "type": "Feature"}, {"geometry": {"coordinates": [[106.8299576, -6.3751682], [106.819277, -6.3712977], [106.8265611, -6.3476272], [106.8276911, -6.3479968], [106.8278119, -6.34747], [106.8281659, -6.347429], [106.8282007, -6.3468079], [106.8283643, -6.3468105], [106.8296035, -6.3467786], [106.8296035, -6.3469012], [106.8299737, -6.3469598], [106.8302097, -6.3462134], [106.8319907, -6.3461761], [106.8318834, -6.3468692], [106.8328168, -6.3469012], [106.8326827, -6.3475196], [106.8325271, -6.3481328], [106.832511, -6.3491831], [106.8324038, -6.3500095], [106.8320819, -6.3510278], [106.8319746, -6.3519768], [106.831937, -6.3529098], [106.8317332, -6.3545146], [106.8315347, -6.3555329], [106.8315133, -6.3585345], [106.8317386, -6.3610136], [106.8322214, -6.3641058], [106.8323179, -6.3652467], [106.8323769, -6.3666328], [106.8322911, -6.3677204], [106.832098, -6.3684881], [106.831921, -6.3684321], [106.8312504, -6.3704954], [106.8311163, -6.371519], [106.8310144, -6.3719881], [106.8299576, -6.3751682]], "type": "LineString"}, "id": 401969868, "properties": {"amenity": "university", "name": "Universitas Indonesia", "operator": "Universitas Indonesia"}, "type": "Feature"}, {"geometry": {"coordinates": [[106.8414513, -6.3548471], [106.8419555, -6.3548684], [106.8419555, -6.3544739], [106.8422345, -6.3544686], [106.8421648, -6.3539114], [106.8423257, -6.3538768], [106.8423284, -6.3533596], [106.8417463, -6.3533543], [106.8417624, -6.3531944], [106.8416954, -6.3531837], [106.8417141, -6.3529891], [106.8413681, -6.3529918], [106.8413279, -6.3530637], [106.8412609, -6.3534689], [106.8410114, -6.3534476], [106.8409631, -6.3537008], [106.8409658, -6.3538794], [106.8407325, -6.3538901], [106.8404186, -6.3538715], [106.8403757, -6.354106], [106.8406118, -6.3541114], [106.840601, -6.3541727], [106.8409551, -6.3542367], [106.8409444, -6.3543966], [106.8414727, -6.3544686], [106.8414513, -6.3548471]], "type": "LineString"}, "id": 401977089, "properties": {"amenity": "university", "name": "Kampus E Universitas Gunadarma", "operator": "Universitas Gunadarma"}, "type": "Feature"}, {"geometry": {"coordinates": [[106.8431196, -6.3543566], [106.8432618, -6.3543433], [106.8432564, -6.3539141], [106.8432886, -6.3537702], [106.8436158, -6.3538048], [106.8438841, -6.3539354], [106.8441684, -6.3540927], [106.8441147, -6.3545219], [106.8437446, -6.3545139], [106.8437043, -6.3549324], [106.8430874, -6.3548791], [106.8431196, -6.3543566]], "type": "LineString"}, "id": 401977090, "properties": {"amenity": "university", "name": "Kampus G Universitas Gunadarma", "operator": "Universitas Gunadarma"}, "type": "Feature"}, {"geometry": {"coordinates": [[106.8359984, -6.3519548], [106.8365241, -6.3520961], [106.8387449, -6.3522827], [106.8388147, -6.3531384], [106.8385921, -6.3531624], [106.8385947, -6.3538768], [106.8385706, -6.3540154], [106.8379456, -6.3538368], [106.8376184, -6.3537888], [106.8376694, -6.3535009], [106.8376452, -6.3533436], [106.8372697, -6.3531864], [106.8366662, -6.3530264], [106.8363605, -6.3531704], [106.8361512, -6.3532983], [106.8361405, -6.3529731], [106.8360574, -6.3527252], [106.8358589, -6.3524693], [106.8356872, -6.352352], [106.8356497, -6.352224], [106.8357033, -6.3519974], [106.8357918, -6.3519575], [106.8359984, -6.3519548]], "type": "LineString"}, "id": 401977091, "properties": {"amenity": "university", "name": "Kampus H Universitas Gunadarma", "operator": "Universitas Gunadarma"}, "type": "Feature"}, {"geometry": {"coordinates": [[106.8775493, -6.1947813], [106.8775276, -6.1950762], [106.8779518, -6.1951071], [106.8779735, -6.1948122], [106.8775493, -6.1947813]], "type": "LineString"}, "id": 426761663, "properties": {"amenity": "university", "name": "Gedung R.A Kartini"}, "type": "Feature"}, {"geometry": {"coordinates": [[106.8784345, -6.1948685], [106.8784118, -6.1951772], [106.8787639, -6.1951961], [106.8787867, -6.1948911], [106.8784345, -6.1948685]], "type": "LineString"}, "id": 426761664, "properties": {"amenity": "university", "name": "Gedung Raden Dewi Sartika"}, "type": "Feature"}, {"geometry": {"coordinates": [[106.8780743, -6.1942461], [106.8780921, -6.193963], [106.8780928, -6.1939243], [106.8783994, -6.1939417], [106.878381, -6.1942635], [106.8780743, -6.1942461]], "type": "LineString"}, "id": 426761668, "properties": {"amenity": "university", "name": "Perspustakaan UNJ"}, "type": "Feature"}, {"geometry": {"coordinates": [[106.8785283, -6.1955228], [106.8787438, -6.1955464], [106.8787635, -6.1953263], [106.8783483, -6.1952909], [106.8783305, -6.1954757], [106.8785283, -6.1954875], [106.8785283, -6.1955228]], "type": "LineString"}, "id": 426962748, "properties": {"amenity": "university", "name": "Gedung Rektorat UNj"}, "type": "Feature"}, {"geometry": {"coordinates": [[106.8775386, -6.196145], [106.8775378, -6.1962616], [106.8778251, -6.1962636], [106.8778239, -6.1964414], [106.8775749, -6.1964397], [106.8775739, -6.1965785], [106.878183, -6.1965827], [106.8781842, -6.1964154], [106.8780415, -6.1964144], [106.8780424, -6.1962827], [106.8781826, -6.1962837], [106.8781838, -6.1961084], [106.878085, -6.1961077], [106.8780853, -6.1960637], [106.8778759, -6.1960623], [106.8778753, -6.1961473], [106.8775386, -6.196145]], "type": "LineString"}, "id": 426962758, "properties": {"amenity": "university", "building": "yes", "name": "Fakultas Ilmu Pendidikan UNJ"}, "type": "Feature"}], "type": "FeatureCollection"}