{"features": [{"geometry": {"coordinates": [10.3622416, 5.9721972], "type": "Point"}, "id": 983497849, "properties": {"amenity": "townhall", "name": "Quarter Hall Mbecha"}, "type": "Feature"}, {"geometry": {"coordinates": [10.3609175, 5.9771482], "type": "Point"}, "id": 983497853, "properties": {"amenity": "townhall", "name": "Community Hall Mbesoh"}, "type": "Feature"}, {"geometry": {"coordinates": [10.3561052, 5.9706647], "type": "Point"}, "id": 983497877, "properties": {"amenity": "townhall", "name": "Community Hall Mbeleuh"}, "type": "Feature"}, {"geometry": {"coordinates": [10.3605077, 5.9861399], "type": "Point"}, "id": 983497879, "properties": {"amenity": "townhall", "name": "Bhegham community Town Hall"}, "type": "Feature"}, {"geometry": {"coordinates": [10.3605627, 5.9846345], "type": "Point"}, "id": 983497894, "properties": {"amenity": "townhall", "name": "Bamessing Palace"}, "type": "Feature"}, {"geometry": {"coordinates": [10.3521348, 5.9704859], "type": "Point"}, "id": 983497895, "properties": {"amenity": "townhall", "name": "Community Hall Mbenjong"}, "type": "Feature"}, {"geometry": {"coordinates": [10.3608454, 5.9845091], "type": "Point"}, "id": 983497904, "properties": {"amenity": "townhall", "name": "Council Hall"}, "type": "Feature"}, {"geometry": {"coordinates": [10.3559738, 5.9709406], "type": "Point"}, "id": 983497907, "properties": {"amenity": "townhall", "name": "Palace Mbeleuh"}, "type": "Feature"}, {"geometry": {"coordinates": [10.3603067, 5.9822424], "type": "Point"}, "id": 983497908, "properties": {"amenity": "townhall", "name": "Community Hall Mbesoh"}, "type": "Feature"}, {"geometry": {"coordinates": [10.3660545, 5.9832731], "type": "Point"}, "id": 983497912, "properties": {"amenity": "townhall", "name": "Quarter Hall Mbegham"}, "type": "Feature"}, {"geometry": {"coordinates": [10.3686361, 5.9728587], "type": "Point"}, "id": 983497917, "properties": {"amenity": "townhall", "name": "Community Hall Mbekuoh"}, "type": "Feature"}, {"geometry": {"coordinates": [10.4428071, 5.9858515], "type": "Point"}, "id": 1068916061, "properties": {"amenity": "townhall", "name": "Ndop Social Ceentre"}, "type": "Feature"}, {"geometry": {"coordinates": [10.435681, 5.9922962], "type": "Point"}, "id": 1069146966, "properties": {"amenity": "townhall", "name": "Ndop Council"}, "type": "Feature"}, {"geometry": {"coordinates": [10.3716147, 5.9904071], "type": "Point"}, "id": 1069885975, "properties": {"amenity": "townhall", "name": "Community Hall Tenkah"}, "type": "Feature"}, {"geometry": {"coordinates": [10.3582516, 6.0015185], "type": "Point"}, "id": 1069886051, "properties": {"amenity": "townhall", "name": "Community Hall  Mbekiveh Mbebah"}, "type": "Feature"}, {"geometry": {"coordinates": [10.3652532, 5.9972788], "type": "Point"}, "id": 1069886097, "properties": {"amenity": "townhall", "name": "Bekoh Community Hall"}, "type": "Feature"}, {"geometry": {"coordinates": [10.3584525, 6.0035583], "type": "Point"}, "id": 1069886176, "properties": {"amenity": "townhall", "name": "Community Hall Mbebah"}, "type": "Feature"}, {"geometry": {"coordinates": [10.3795744, 5.9857519], "type": "Point"}, "id": 1069886181, "properties": {"amenity": "townhall", "name": "Community Hall Nsang tah"}, "type": "Feature"}, {"geometry": {"coordinates": [10.3947872, 5.9779189], "type": "Point"}, "id": 1069886216, "properties": {"amenity": "townhall", "name": "Community Hall Nsemi"}, "type": "Feature"}, {"geometry": {"coordinates": [10.3879419, 5.985673], "type": "Point"}, "id": 1069886356, "properties": {"amenity": "townhall", "name": "Community Hall Ngwalang"}, "type": "Feature"}, {"geometry": {"coordinates": [10.392452, 5.9832048], "type": "Point"}, "id": 1069886445, "properties": {"amenity": "townhall", "name": "Community Hall Akeh"}, "type": "Feature"}, {"geometry": {"coordinates": [10.4058704, 5.9874336], "type": "Point"}, "id": 1069886508, "properties": {"amenity": "townhall", "name": "Community Hall Murfor II"}, "type": "Feature"}, {"geometry": {"coordinates": [10.4379435, 5.9523971], "type": "Point"}, "id": 1078434885, "properties": {"amenity": "townhall", "name": "Bamali Fons Palace"}, "type": "Feature"}, {"geometry": {"coordinates": [10.012446, 6.0092529], "type": "Point"}, "id": 3145006102, "properties": {"addr:city": "Mbengwi", "amenity": "townhall", "name": "Mbengwi Council Building"}, "type": "Feature"}, {"geometry": {"coordinates": [[9.9272187, 6.4120531], [9.9273028, 6.4120277], [9.9273078, 6.412044], [9.9274109, 6.4120128], [9.9274058, 6.4119964], [9.9274945, 6.4119696], [9.9274554, 6.4118418], [9.9273744, 6.4118663], [9.9273664, 6.4118402], [9.927254, 6.4118742], [9.9272632, 6.4119043], [9.9271807, 6.4119292], [9.9272187, 6.4120531]], "type": "LineString"}, "id": 317918628, "properties": {"amenity": "townhall", "building": "yes", "name": "Sous-pr\u00e9fecture"}, "type": "Feature"}, {"geometry": {"coordinates": [[9.834722, 6.1168138], [9.8348167, 6.1168244], [9.834851, 6.1165208], [9.8347562, 6.1165102], [9.834722, 6.1168138]], "type": "LineString"}, "id": 317943805, "properties": {"amenity": "townhall", "building": "yes", "name": "Mairie"}, "type": "Feature"}, {"geometry": {"coordinates": [[9.7708917, 5.8691367], [9.7710375, 5.8691405], [9.77104, 5.8690431], [9.7708942, 5.8690393], [9.7708917, 5.8691367]], "type": "LineString"}, "id": 317943806, "properties": {"amenity": "townhall", "building": "yes", "name": "Sous-pr\u00e9fecture"}, "type": "Feature"}, {"geometry": {"coordinates": [[10.3418079, 6.1760808], [10.3417678, 6.1759235], [10.342098, 6.1758402], [10.342104, 6.1758634], [10.3421607, 6.1758491], [10.3421756, 6.1759076], [10.3419022, 6.1759766], [10.3419215, 6.1760522], [10.3418079, 6.1760808]], "type": "LineString"}, "id": 322013056, "properties": {"amenity": "townhall", "building": "yes", "name": "Mairie"}, "type": "Feature"}, {"geometry": {"coordinates": [[10.3664937, 5.6908842], [10.366481, 5.6908195], [10.3665607, 5.6907008], [10.3668609, 5.6909002], [10.3668, 5.6909911], [10.366729, 5.690944], [10.3666859, 5.6910083], [10.3666026, 5.690953], [10.3666483, 5.690885], [10.3666252, 5.6908697], [10.3666018, 5.6909045], [10.3665408, 5.6909134], [10.3664937, 5.6908842]], "type": "LineString"}, "id": 375096834, "properties": {"amenity": "townhall", "building": "yes", "name": "Hotel de ville"}, "type": "Feature"}, {"geometry": {"coordinates": [[10.3669284, 5.6911828], [10.3669674, 5.691211], [10.3670035, 5.6911616], [10.3668264, 5.6910334], [10.3667896, 5.6910837], [10.3669081, 5.6911695], [10.3668888, 5.691196], [10.3668501, 5.6911681], [10.3666923, 5.6913839], [10.3667505, 5.691426], [10.3669284, 5.6911828]], "type": "LineString"}, "id": 375096835, "properties": {"amenity": "townhall", "building": "yes", "name": "Mairie"}, "type": "Feature"}, {"geometry": {"coordinates": [[10.3983254, 5.5052487], [10.3986243, 5.5054579], [10.3987247, 5.5053157], [10.3984258, 5.5051065], [10.3983254, 5.5052487]], "type": "LineString"}, "id": 394654451, "properties": {"addr:city": "Bafoussam II", "amenity": "townhall", "building": "yes", "building:levels": "1", "name": "Mairie de Bafoussam II"}, "type": "Feature"}, {"geometry": {"coordinates": [[10.1894578, 5.9799339], [10.1896395, 5.9799258], [10.1896445, 5.9800357], [10.1896251, 5.9800592], [10.1896026, 5.9800409], [10.1895883, 5.9800583], [10.1895675, 5.9800414], [10.1895359, 5.9800799], [10.189574, 5.9801109], [10.1894061, 5.9803156], [10.1893855, 5.9802988], [10.1893582, 5.980332], [10.1893148, 5.9802968], [10.1893453, 5.9802596], [10.1893259, 5.980244], [10.1894893, 5.9800448], [10.1895219, 5.9800713], [10.1895565, 5.9800293], [10.1895172, 5.9799975], [10.1894608, 5.98], [10.1894578, 5.9799339]], "type": "LineString"}, "id": 403278278, "properties": {"amenity": "townhall", "building": "yes", "name": "Bamenda III Townhall", "name:fr": "Mairie de Bamenda III"}, "type": "Feature"}, {"geometry": {"coordinates": [[10.1359444, 5.9741768], [10.1363933, 5.9742288], [10.1367197, 5.9740779], [10.1369512, 5.9739557], [10.137147, 5.9737775], [10.1367946, 5.9734602], [10.1365141, 5.9732228], [10.1361093, 5.9728909], [10.1358049, 5.9729977], [10.1357221, 5.9733359], [10.1357439, 5.9738387], [10.1358398, 5.9740511], [10.1359444, 5.9741768]], "type": "LineString"}, "id": 426138924, "properties": {"amenity": "townhall", "name": "Bamenda Urban Council"}, "type": "Feature"}], "type": "FeatureCollection"}